{
"type": "FeatureCollection",
"name": "amenity_cafe_Olomouc",
"crs": { "type": "name", "properties": { "name": "urn:ogc:def:crs:OGC:1.3:CRS84" } },
"features": [
{ "type": "Feature", "properties": { "official_name": null, "wheelchair": "no", "legend": "kavárna" }, "geometry": { "type": "Point", "coordinates": [ 17.363163009664728, 49.618269704199733 ] } },
{ "type": "Feature", "properties": { "official_name": null, "wheelchair": null, "legend": "kavárna" }, "geometry": { "type": "Point", "coordinates": [ 17.250090909587531, 49.591961004203583 ] } },
{ "type": "Feature", "properties": { "official_name": null, "wheelchair": null, "legend": "kavárna" }, "geometry": { "type": "Point", "coordinates": [ 17.247217209585447, 49.592946804204757 ] } },
{ "type": "Feature", "properties": { "official_name": null, "wheelchair": null, "legend": "kavárna" }, "geometry": { "type": "Point", "coordinates": [ 17.255839609592588, 49.577299504192148 ] } },
{ "type": "Feature", "properties": { "official_name": null, "wheelchair": null, "legend": "kavárna" }, "geometry": { "type": "Point", "coordinates": [ 17.26671690959882, 49.597595604204251 ] } },
{ "type": "Feature", "properties": { "official_name": null, "wheelchair": null, "legend": "kavárna" }, "geometry": { "type": "Point", "coordinates": [ 17.234413009575352, 49.608132704217923 ] } },
{ "type": "Feature", "properties": { "official_name": null, "wheelchair": "yes", "legend": "kavárna" }, "geometry": { "type": "Point", "coordinates": [ 17.250682409587856, 49.593155904204281 ] } },
{ "type": "Feature", "properties": { "official_name": null, "wheelchair": null, "legend": "kavárna" }, "geometry": { "type": "Point", "coordinates": [ 17.261049409594914, 49.596531304204596 ] } },
{ "type": "Feature", "properties": { "official_name": null, "wheelchair": null, "legend": "kavárna" }, "geometry": { "type": "Point", "coordinates": [ 17.261297909594976, 49.598156304205681 ] } },
{ "type": "Feature", "properties": { "official_name": null, "wheelchair": "no", "legend": "kavárna" }, "geometry": { "type": "Point", "coordinates": [ 17.252386809588984, 49.594101204204584 ] } },
{ "type": "Feature", "properties": { "official_name": null, "wheelchair": null, "legend": "kavárna" }, "geometry": { "type": "Point", "coordinates": [ 17.252065309588819, 49.593246504204124 ] } },
{ "type": "Feature", "properties": { "official_name": null, "wheelchair": null, "legend": "kavárna" }, "geometry": { "type": "Point", "coordinates": [ 17.248095009585906, 49.595001004206075 ] } },
{ "type": "Feature", "properties": { "official_name": null, "wheelchair": "no", "legend": "kavárna" }, "geometry": { "type": "Point", "coordinates": [ 17.272576609603199, 49.593852104200515 ] } },
{ "type": "Feature", "properties": { "official_name": null, "wheelchair": null, "legend": "kavárna" }, "geometry": { "type": "Point", "coordinates": [ 17.266844809599057, 49.595441104202749 ] } },
{ "type": "Feature", "properties": { "official_name": null, "wheelchair": null, "legend": "kavárna" }, "geometry": { "type": "Point", "coordinates": [ 17.269204609600745, 49.595125504202052 ] } },
{ "type": "Feature", "properties": { "official_name": null, "wheelchair": "no", "legend": "kavárna" }, "geometry": { "type": "Point", "coordinates": [ 17.27529810960516, 49.593052304199425 ] } },
{ "type": "Feature", "properties": { "official_name": null, "wheelchair": null, "legend": "kavárna" }, "geometry": { "type": "Point", "coordinates": [ 17.273213909603601, 49.594423404200811 ] } },
{ "type": "Feature", "properties": { "official_name": null, "wheelchair": null, "legend": "kavárna" }, "geometry": { "type": "Point", "coordinates": [ 17.250343009587553, 49.594287504205134 ] } },
{ "type": "Feature", "properties": { "official_name": null, "wheelchair": "limited", "legend": "kavárna" }, "geometry": { "type": "Point", "coordinates": [ 17.253437909589866, 49.592218104203077 ] } },
{ "type": "Feature", "properties": { "official_name": null, "wheelchair": null, "legend": "kavárna" }, "geometry": { "type": "Point", "coordinates": [ 17.248671809587602, 49.57639880419292 ] } },
{ "type": "Feature", "properties": { "official_name": null, "wheelchair": "yes", "legend": "kavárna" }, "geometry": { "type": "Point", "coordinates": [ 17.238782909579367, 49.594880004207759 ] } },
{ "type": "Feature", "properties": { "official_name": null, "wheelchair": null, "legend": "kavárna" }, "geometry": { "type": "Point", "coordinates": [ 17.228758209573641, 49.575133104195963 ] } },
{ "type": "Feature", "properties": { "official_name": null, "wheelchair": "no", "legend": "kavárna" }, "geometry": { "type": "Point", "coordinates": [ 17.266323009598693, 49.595584304202916 ] } },
{ "type": "Feature", "properties": { "official_name": null, "wheelchair": null, "legend": "kavárna" }, "geometry": { "type": "Point", "coordinates": [ 17.237000609578921, 49.583015704199831 ] } },
{ "type": "Feature", "properties": { "official_name": null, "wheelchair": "no", "legend": "kavárna" }, "geometry": { "type": "Point", "coordinates": [ 17.253386709590107, 49.588118604200261 ] } },
{ "type": "Feature", "properties": { "official_name": null, "wheelchair": "no", "legend": "kavárna" }, "geometry": { "type": "Point", "coordinates": [ 17.255070009591023, 49.592102004202665 ] } },
{ "type": "Feature", "properties": { "official_name": null, "wheelchair": null, "legend": "kavárna" }, "geometry": { "type": "Point", "coordinates": [ 17.287133509613636, 49.590663304195438 ] } },
{ "type": "Feature", "properties": { "official_name": null, "wheelchair": null, "legend": "kavárna" }, "geometry": { "type": "Point", "coordinates": [ 17.249680609586996, 49.595485204206128 ] } },
{ "type": "Feature", "properties": { "official_name": null, "wheelchair": null, "legend": "kavárna" }, "geometry": { "type": "Point", "coordinates": [ 17.252955109589507, 49.59242130420332 ] } },
{ "type": "Feature", "properties": { "official_name": null, "wheelchair": null, "legend": "kavárna" }, "geometry": { "type": "Point", "coordinates": [ 17.257137909592799, 49.587459804199078 ] } },
{ "type": "Feature", "properties": { "official_name": null, "wheelchair": null, "legend": "kavárna" }, "geometry": { "type": "Point", "coordinates": [ 17.257846309593301, 49.587506804198945 ] } },
{ "type": "Feature", "properties": { "official_name": null, "wheelchair": null, "legend": "kavárna" }, "geometry": { "type": "Point", "coordinates": [ 17.248542109586126, 49.596404404207 ] } },
{ "type": "Feature", "properties": { "official_name": null, "wheelchair": null, "legend": "kavárna" }, "geometry": { "type": "Point", "coordinates": [ 17.338123009646569, 49.628757804211972 ] } },
{ "type": "Feature", "properties": { "official_name": null, "wheelchair": "yes", "legend": "kavárna" }, "geometry": { "type": "Point", "coordinates": [ 17.217259109564161, 49.59521240421217 ] } },
{ "type": "Feature", "properties": { "official_name": null, "wheelchair": "yes", "legend": "kavárna" }, "geometry": { "type": "Point", "coordinates": [ 17.246995609585134, 49.594907404206268 ] } },
{ "type": "Feature", "properties": { "official_name": null, "wheelchair": "limited", "legend": "kavárna" }, "geometry": { "type": "Point", "coordinates": [ 17.252029109588609, 49.596043504206079 ] } },
{ "type": "Feature", "properties": { "official_name": null, "wheelchair": "limited", "legend": "kavárna" }, "geometry": { "type": "Point", "coordinates": [ 17.252678209589149, 49.594797904205038 ] } },
{ "type": "Feature", "properties": { "official_name": null, "wheelchair": "yes", "legend": "kavárna" }, "geometry": { "type": "Point", "coordinates": [ 17.252120309588932, 49.592299904203429 ] } },
{ "type": "Feature", "properties": { "official_name": null, "wheelchair": "yes", "legend": "kavárna" }, "geometry": { "type": "Point", "coordinates": [ 17.255305709590925, 49.595798804205224 ] } },
{ "type": "Feature", "properties": { "official_name": null, "wheelchair": "yes", "legend": "kavárna" }, "geometry": { "type": "Point", "coordinates": [ 17.277992309607082, 49.592719404198625 ] } },
{ "type": "Feature", "properties": { "official_name": null, "wheelchair": null, "legend": "kavárna" }, "geometry": { "type": "Point", "coordinates": [ 17.253546309589758, 49.594895604204972 ] } },
{ "type": "Feature", "properties": { "official_name": null, "wheelchair": null, "legend": "kavárna" }, "geometry": { "type": "Point", "coordinates": [ 17.245469109583762, 49.599385904209655 ] } },
{ "type": "Feature", "properties": { "official_name": null, "wheelchair": null, "legend": "kavárna" }, "geometry": { "type": "Point", "coordinates": [ 17.253997809590278, 49.591936104202766 ] } },
{ "type": "Feature", "properties": { "official_name": null, "wheelchair": null, "legend": "kavárna" }, "geometry": { "type": "Point", "coordinates": [ 17.254333909590567, 49.590990004202055 ] } },
{ "type": "Feature", "properties": { "official_name": "Starbucks Coffee", "wheelchair": null, "legend": "kavárna" }, "geometry": { "type": "Point", "coordinates": [ 17.256988609592678, 49.587496404199094 ] } },
{ "type": "Feature", "properties": { "official_name": null, "wheelchair": null, "legend": "kavárna" }, "geometry": { "type": "Point", "coordinates": [ 17.245977509584925, 49.587667004201393 ] } },
{ "type": "Feature", "properties": { "official_name": null, "wheelchair": null, "legend": "kavárna" }, "geometry": { "type": "Point", "coordinates": [ 17.242359009581868, 49.595167704207292 ] } },
{ "type": "Feature", "properties": { "official_name": null, "wheelchair": null, "legend": "kavárna" }, "geometry": { "type": "Point", "coordinates": [ 17.295446009620552, 49.574995104182769 ] } },
{ "type": "Feature", "properties": { "official_name": null, "wheelchair": "no", "legend": "kavárna" }, "geometry": { "type": "Point", "coordinates": [ 17.24987740958742, 49.5915100042033 ] } },
{ "type": "Feature", "properties": { "official_name": null, "wheelchair": "yes", "legend": "kavárna" }, "geometry": { "type": "Point", "coordinates": [ 17.24235000958144, 49.600963504211357 ] } },
{ "type": "Feature", "properties": { "official_name": null, "wheelchair": "limited", "legend": "kavárna" }, "geometry": { "type": "Point", "coordinates": [ 17.239099709578994, 49.603343404213689 ] } },
{ "type": "Feature", "properties": { "official_name": null, "wheelchair": null, "legend": "kavárna" }, "geometry": { "type": "Point", "coordinates": [ 17.276184609605956, 49.590609204197506 ] } },
{ "type": "Feature", "properties": { "official_name": null, "wheelchair": "yes", "legend": "kavárna" }, "geometry": { "type": "Point", "coordinates": [ 17.234241009576394, 49.591358904206274 ] } },
{ "type": "Feature", "properties": { "official_name": null, "wheelchair": null, "legend": "kavárna" }, "geometry": { "type": "Point", "coordinates": [ 17.228338509573373, 49.57485610419576 ] } },
{ "type": "Feature", "properties": { "official_name": null, "wheelchair": null, "legend": "kavárna" }, "geometry": { "type": "Point", "coordinates": [ 17.223584209568223, 49.600848304214956 ] } },
{ "type": "Feature", "properties": { "official_name": null, "wheelchair": null, "legend": "kavárna" }, "geometry": { "type": "Point", "coordinates": [ 17.252146309588667, 49.596301904206193 ] } },
{ "type": "Feature", "properties": { "official_name": null, "wheelchair": null, "legend": "kavárna" }, "geometry": { "type": "Point", "coordinates": [ 17.26937230960117, 49.590672204198903 ] } },
{ "type": "Feature", "properties": { "official_name": null, "wheelchair": null, "legend": "kavárna" }, "geometry": { "type": "Point", "coordinates": [ 17.24798630958583, 49.595071104206177 ] } },
{ "type": "Feature", "properties": { "official_name": null, "wheelchair": null, "legend": "kavárna" }, "geometry": { "type": "Point", "coordinates": [ 17.25112750958808, 49.594411504205119 ] } },
{ "type": "Feature", "properties": { "official_name": null, "wheelchair": null, "legend": "kavárna" }, "geometry": { "type": "Point", "coordinates": [ 17.251678609588552, 49.593264004204237 ] } },
{ "type": "Feature", "properties": { "official_name": null, "wheelchair": null, "legend": "kavárna" }, "geometry": { "type": "Point", "coordinates": [ 17.253431809589671, 49.595048604205054 ] } },
{ "type": "Feature", "properties": { "official_name": null, "wheelchair": "no", "legend": "kavárna" }, "geometry": { "type": "Point", "coordinates": [ 17.263379409596546, 49.596737504204306 ] } },
{ "type": "Feature", "properties": { "official_name": null, "wheelchair": null, "legend": "kavárna" }, "geometry": { "type": "Point", "coordinates": [ 17.247003109585084, 49.595899204206908 ] } },
{ "type": "Feature", "properties": { "official_name": null, "wheelchair": null, "legend": "kavárna" }, "geometry": { "type": "Point", "coordinates": [ 17.26196510959554, 49.596795504204643 ] } },
{ "type": "Feature", "properties": { "official_name": null, "wheelchair": null, "legend": "kavárna" }, "geometry": { "type": "Point", "coordinates": [ 17.251240609588308, 49.592320404203619 ] } },
{ "type": "Feature", "properties": { "official_name": null, "wheelchair": null, "legend": "kavárna" }, "geometry": { "type": "Point", "coordinates": [ 17.258110009593537, 49.586683204198295 ] } },
{ "type": "Feature", "properties": { "official_name": null, "wheelchair": null, "legend": "kavárna" }, "geometry": { "type": "Point", "coordinates": [ 17.256999109592684, 49.587743604199282 ] } },
{ "type": "Feature", "properties": { "official_name": null, "wheelchair": null, "legend": "kavárna" }, "geometry": { "type": "Point", "coordinates": [ 17.257220009592846, 49.58754680419905 ] } },
{ "type": "Feature", "properties": { "official_name": null, "wheelchair": null, "legend": "kavárna" }, "geometry": { "type": "Point", "coordinates": [ 17.257494709593033, 49.587659504199081 ] } },
{ "type": "Feature", "properties": { "official_name": null, "wheelchair": null, "legend": "kavárna" }, "geometry": { "type": "Point", "coordinates": [ 17.219849109567477, 49.573491504196497 ] } },
{ "type": "Feature", "properties": { "official_name": null, "wheelchair": "yes", "legend": "kavárna" }, "geometry": { "type": "Point", "coordinates": [ 17.256789609591959, 49.596005204205085 ] } },
{ "type": "Feature", "properties": { "official_name": null, "wheelchair": null, "legend": "kavárna" }, "geometry": { "type": "Point", "coordinates": [ 17.259392109593804, 49.595636004204358 ] } },
{ "type": "Feature", "properties": { "official_name": null, "wheelchair": null, "legend": "kavárna" }, "geometry": { "type": "Point", "coordinates": [ 17.25202220958862, 49.595642304205796 ] } },
{ "type": "Feature", "properties": { "official_name": null, "wheelchair": null, "legend": "kavárna" }, "geometry": { "type": "Point", "coordinates": [ 17.252106809588938, 49.592208104203358 ] } },
{ "type": "Feature", "properties": { "official_name": null, "wheelchair": "yes", "legend": "kavárna" }, "geometry": { "type": "Point", "coordinates": [ 17.263410709596954, 49.591015804200339 ] } },
{ "type": "Feature", "properties": { "official_name": null, "wheelchair": null, "legend": "kavárna" }, "geometry": { "type": "Point", "coordinates": [ 17.26809810959983, 49.597138904203646 ] } },
{ "type": "Feature", "properties": { "official_name": null, "wheelchair": null, "legend": "kavárna" }, "geometry": { "type": "Point", "coordinates": [ 17.250042809587288, 49.594906104205641 ] } },
{ "type": "Feature", "properties": { "official_name": null, "wheelchair": null, "legend": "kavárna" }, "geometry": { "type": "Point", "coordinates": [ 17.266939609599003, 49.59728060420403 ] } },
{ "type": "Feature", "properties": { "official_name": null, "wheelchair": null, "legend": "kavárna" }, "geometry": { "type": "Point", "coordinates": [ 17.217372509564225, 49.595225704212268 ] } },
{ "type": "Feature", "properties": { "official_name": null, "wheelchair": null, "legend": "kavárna" }, "geometry": { "type": "Point", "coordinates": [ 17.217628009564415, 49.595240504212192 ] } },
{ "type": "Feature", "properties": { "official_name": null, "wheelchair": null, "legend": "kavárna" }, "geometry": { "type": "Point", "coordinates": [ 17.245755009584212, 49.595727704207036 ] } },
{ "type": "Feature", "properties": { "official_name": null, "wheelchair": null, "legend": "kavárna" }, "geometry": { "type": "Point", "coordinates": [ 17.251983209588893, 49.591497504202906 ] } },
{ "type": "Feature", "properties": { "official_name": null, "wheelchair": null, "legend": "kavárna" }, "geometry": { "type": "Point", "coordinates": [ 17.25285890958931, 49.594223404204627 ] } },
{ "type": "Feature", "properties": { "official_name": null, "wheelchair": null, "legend": "kavárna" }, "geometry": { "type": "Point", "coordinates": [ 17.25065170958786, 49.592733104203994 ] } },
{ "type": "Feature", "properties": { "official_name": null, "wheelchair": null, "legend": "kavárna" }, "geometry": { "type": "Point", "coordinates": [ 17.253378109589654, 49.594615404204767 ] } },
{ "type": "Feature", "properties": { "official_name": null, "wheelchair": "yes", "legend": "kavárna" }, "geometry": { "type": "Point", "coordinates": [ 17.250330209587471, 49.595135004205765 ] } },
{ "type": "Feature", "properties": { "official_name": null, "wheelchair": "yes", "legend": "kavárna" }, "geometry": { "type": "Point", "coordinates": [ 17.23213570957618, 49.573114804193814 ] } },
{ "type": "Feature", "properties": { "official_name": null, "wheelchair": null, "legend": "kavárna" }, "geometry": { "type": "Point", "coordinates": [ 17.258757809593323, 49.596474504205034 ] } },
{ "type": "Feature", "properties": { "official_name": null, "wheelchair": "no", "legend": "kavárna" }, "geometry": { "type": "Point", "coordinates": [ 17.251036209587888, 49.596242004206367 ] } },
{ "type": "Feature", "properties": { "official_name": null, "wheelchair": null, "legend": "kavárna" }, "geometry": { "type": "Point", "coordinates": [ 17.25446210959036, 49.595377004205069 ] } },
{ "type": "Feature", "properties": { "official_name": null, "wheelchair": null, "legend": "kavárna" }, "geometry": { "type": "Point", "coordinates": [ 17.228616509572067, 49.596714104211081 ] } }
]
}
