{
"type": "FeatureCollection",
"name": "amenity_restaurant_Olomouc",
"crs": { "type": "name", "properties": { "name": "urn:ogc:def:crs:OGC:1.3:CRS84" } },
"features": [
{ "type": "Feature", "properties": { "capacity": "61", "wheelchair": null, "name": "Bohemia", "legend": "restaurace" }, "geometry": { "type": "Point", "coordinates": [ 17.251299309589538, 49.575050804191463 ] } },
{ "type": "Feature", "properties": { "capacity": "84", "wheelchair": null, "name": "Pizzeria u Jana", "legend": "restaurace" }, "geometry": { "type": "Point", "coordinates": [ 17.284403709611471, 49.594126404198448 ] } },
{ "type": "Feature", "properties": { "capacity": "40", "wheelchair": "limited", "name": "Radegast", "legend": "restaurace" }, "geometry": { "type": "Point", "coordinates": [ 17.244115109584271, 49.578012804194955 ] } },
{ "type": "Feature", "properties": { "capacity": "53", "wheelchair": null, "name": "U Macků", "legend": "restaurace" }, "geometry": { "type": "Point", "coordinates": [ 17.339526009647567, 49.628236404211385 ] } },
{ "type": "Feature", "properties": { "capacity": "94", "wheelchair": "yes", "name": "Caesar", "legend": "restaurace" }, "geometry": { "type": "Point", "coordinates": [ 17.251675209588509, 49.594036204204663 ] } },
{ "type": "Feature", "properties": { "capacity": "72", "wheelchair": null, "name": "Kozlovna", "legend": "restaurace" }, "geometry": { "type": "Point", "coordinates": [ 17.262527109596146, 49.5939496042025 ] } },
{ "type": "Feature", "properties": { "capacity": "51", "wheelchair": null, "name": "M. D. Original 1869", "legend": "restaurace" }, "geometry": { "type": "Point", "coordinates": [ 17.274001909604294, 49.59250520419927 ] } },
{ "type": "Feature", "properties": { "capacity": "96", "wheelchair": null, "name": "motorest u Sv. Jana", "legend": "restaurace" }, "geometry": { "type": "Point", "coordinates": [ 17.296691109621307, 49.576587304183647 ] } },
{ "type": "Feature", "properties": { "capacity": "30", "wheelchair": "no", "name": "Holický Statek", "legend": "restaurace" }, "geometry": { "type": "Point", "coordinates": [ 17.294750509620087, 49.574374504182543 ] } },
{ "type": "Feature", "properties": { "capacity": "46", "wheelchair": null, "name": "Porto", "legend": "restaurace" }, "geometry": { "type": "Point", "coordinates": [ 17.27764300960682, 49.592937404198878 ] } },
{ "type": "Feature", "properties": { "capacity": "65", "wheelchair": null, "name": "U Ptáka", "legend": "restaurace" }, "geometry": { "type": "Point", "coordinates": [ 17.248899009586449, 49.595355304206201 ] } },
{ "type": "Feature", "properties": { "capacity": "100", "wheelchair": null, "name": "Steak restaurant", "legend": "restaurace" }, "geometry": { "type": "Point", "coordinates": [ 17.286783009613355, 49.590919804195693 ] } },
{ "type": "Feature", "properties": { "capacity": "96", "wheelchair": "limited", "name": "Hospůdka U Mikeše", "legend": "restaurace" }, "geometry": { "type": "Point", "coordinates": [ 17.364103209665295, 49.619704304200603 ] } },
{ "type": "Feature", "properties": { "capacity": "76", "wheelchair": null, "name": "Restaurace Na Dlouhé", "legend": "restaurace" }, "geometry": { "type": "Point", "coordinates": [ 17.257649609592178, 49.601497504208744 ] } },
{ "type": "Feature", "properties": { "capacity": "73", "wheelchair": null, "name": "Drápal", "legend": "restaurace" }, "geometry": { "type": "Point", "coordinates": [ 17.249650809587237, 49.591660404203481 ] } },
{ "type": "Feature", "properties": { "capacity": "98", "wheelchair": null, "name": "Mr. Poke [poukej]", "legend": "restaurace" }, "geometry": { "type": "Point", "coordinates": [ 17.247692709585646, 49.59467120420598 ] } },
{ "type": "Feature", "properties": { "capacity": "92", "wheelchair": null, "name": "Hanácká hospoda", "legend": "restaurace" }, "geometry": { "type": "Point", "coordinates": [ 17.252300909589081, 49.591932904203126 ] } },
{ "type": "Feature", "properties": { "capacity": "58", "wheelchair": null, "name": "U červeného volka", "legend": "restaurace" }, "geometry": { "type": "Point", "coordinates": [ 17.252205609589002, 49.592014304203225 ] } },
{ "type": "Feature", "properties": { "capacity": "57", "wheelchair": "limited", "name": "Jazz Tibet club", "legend": "restaurace" }, "geometry": { "type": "Point", "coordinates": [ 17.252177509588705, 49.59609450420605 ] } },
{ "type": "Feature", "properties": { "capacity": "45", "wheelchair": null, "name": "V lese", "legend": "restaurace" }, "geometry": { "type": "Point", "coordinates": [ 17.253421809589788, 49.593095004203747 ] } },
{ "type": "Feature", "properties": { "capacity": "80", "wheelchair": null, "name": "MacLaren's Pub", "legend": "restaurace" }, "geometry": { "type": "Point", "coordinates": [ 17.2496257095871, 49.593363104204634 ] } },
{ "type": "Feature", "properties": { "capacity": "79", "wheelchair": null, "name": "Grill Pub", "legend": "restaurace" }, "geometry": { "type": "Point", "coordinates": [ 17.232508409576685, 49.569444304191208 ] } },
{ "type": "Feature", "properties": { "capacity": "80", "wheelchair": null, "name": "Olmeca - Mexico", "legend": "restaurace" }, "geometry": { "type": "Point", "coordinates": [ 17.245774609584128, 49.597045004207928 ] } },
{ "type": "Feature", "properties": { "capacity": "61", "wheelchair": null, "name": "Na Letné", "legend": "restaurace" }, "geometry": { "type": "Point", "coordinates": [ 17.264479609596943, 49.601969004207781 ] } },
{ "type": "Feature", "properties": { "capacity": "50", "wheelchair": null, "name": "Sal de Mar", "legend": "restaurace" }, "geometry": { "type": "Point", "coordinates": [ 17.246906609584642, 49.601168404210604 ] } },
{ "type": "Feature", "properties": { "capacity": "47", "wheelchair": null, "name": "U Kapličky", "legend": "restaurace" }, "geometry": { "type": "Point", "coordinates": [ 17.234702709575547, 49.608292604218022 ] } },
{ "type": "Feature", "properties": { "capacity": "76", "wheelchair": null, "name": "Captain Morgan", "legend": "restaurace" }, "geometry": { "type": "Point", "coordinates": [ 17.250446409587795, 49.591720604203282 ] } },
{ "type": "Feature", "properties": { "capacity": "51", "wheelchair": null, "name": "IL CASTELLO", "legend": "restaurace" }, "geometry": { "type": "Point", "coordinates": [ 17.249752909587091, 49.594699904205555 ] } },
{ "type": "Feature", "properties": { "capacity": "91", "wheelchair": null, "name": "Bistrá kráva", "legend": "restaurace" }, "geometry": { "type": "Point", "coordinates": [ 17.261037509594903, 49.596496504204609 ] } },
{ "type": "Feature", "properties": { "capacity": "26", "wheelchair": null, "name": "Cafe Restaurant Konvikt", "legend": "restaurace" }, "geometry": { "type": "Point", "coordinates": [ 17.255661309591233, 49.59509460420464 ] } },
{ "type": "Feature", "properties": { "capacity": "107", "wheelchair": null, "name": "Arigone Hotel Vinárna", "legend": "restaurace" }, "geometry": { "type": "Point", "coordinates": [ 17.254458309590394, 49.594736504204675 ] } },
{ "type": "Feature", "properties": { "capacity": "82", "wheelchair": null, "name": "Moravská restaurace", "legend": "restaurace" }, "geometry": { "type": "Point", "coordinates": [ 17.250289409587555, 49.593507704204598 ] } },
{ "type": "Feature", "properties": { "capacity": "89", "wheelchair": null, "name": "Restaurace - pizzerie NA PILE", "legend": "restaurace" }, "geometry": { "type": "Point", "coordinates": [ 17.27943270960732, 49.603616904205992 ] } },
{ "type": "Feature", "properties": { "capacity": "119", "wheelchair": null, "name": "Hostinský pivovar Moritz", "legend": "restaurace" }, "geometry": { "type": "Point", "coordinates": [ 17.249792109587407, 49.590605404202684 ] } },
{ "type": "Feature", "properties": { "capacity": "96", "wheelchair": null, "name": "The Kathmandu – Nepali Restaurant", "legend": "restaurace" }, "geometry": { "type": "Point", "coordinates": [ 17.252183209588996, 49.592123804203318 ] } },
{ "type": "Feature", "properties": { "capacity": "50", "wheelchair": null, "name": null, "legend": "restaurace" }, "geometry": { "type": "Point", "coordinates": [ 17.250400209586989, 49.602927304211114 ] } },
{ "type": "Feature", "properties": { "capacity": "96", "wheelchair": null, "name": "Svatováclavský pivovar", "legend": "restaurace" }, "geometry": { "type": "Point", "coordinates": [ 17.258478409593142, 49.595926304204767 ] } },
{ "type": "Feature", "properties": { "capacity": "93", "wheelchair": null, "name": "Restaurace Torture", "legend": "restaurace" }, "geometry": { "type": "Point", "coordinates": [ 17.263101209596318, 49.597185004204668 ] } },
{ "type": "Feature", "properties": { "capacity": "57", "wheelchair": null, "name": "U Žida", "legend": "restaurace" }, "geometry": { "type": "Point", "coordinates": [ 17.274979609605808, 49.580448004190579 ] } },
{ "type": "Feature", "properties": { "capacity": "91", "wheelchair": null, "name": "Sokolka", "legend": "restaurace" }, "geometry": { "type": "Point", "coordinates": [ 17.256396509592598, 49.582816304195902 ] } },
{ "type": "Feature", "properties": { "capacity": "74", "wheelchair": null, "name": "Tropic", "legend": "restaurace" }, "geometry": { "type": "Point", "coordinates": [ 17.249196509587509, 49.58307460419752 ] } },
{ "type": "Feature", "properties": { "capacity": "87", "wheelchair": null, "name": "U Švejka", "legend": "restaurace" }, "geometry": { "type": "Point", "coordinates": [ 17.286553509613167, 49.591489104196114 ] } },
{ "type": "Feature", "properties": { "capacity": "63", "wheelchair": null, "name": "Archa", "legend": "restaurace" }, "geometry": { "type": "Point", "coordinates": [ 17.343587609649983, 49.634068904214672 ] } },
{ "type": "Feature", "properties": { "capacity": "93", "wheelchair": null, "name": "Restaurace Michalský Výpad", "legend": "restaurace" }, "geometry": { "type": "Point", "coordinates": [ 17.25529960959128, 49.590643804201676 ] } },
{ "type": "Feature", "properties": { "capacity": "59", "wheelchair": null, "name": "Bounty Rock Café", "legend": "restaurace" }, "geometry": { "type": "Point", "coordinates": [ 17.273445109603998, 49.591058804198369 ] } },
{ "type": "Feature", "properties": { "capacity": "54", "wheelchair": null, "name": "Wok to go", "legend": "restaurace" }, "geometry": { "type": "Point", "coordinates": [ 17.266144009598563, 49.595630104202982 ] } },
{ "type": "Feature", "properties": { "capacity": "99", "wheelchair": null, "name": "La Scala", "legend": "restaurace" }, "geometry": { "type": "Point", "coordinates": [ 17.269690809601094, 49.594994604201844 ] } },
{ "type": "Feature", "properties": { "capacity": "94", "wheelchair": null, "name": "Pizzerie Bystřička", "legend": "restaurace" }, "geometry": { "type": "Point", "coordinates": [ 17.270299809601536, 49.594822104201626 ] } },
{ "type": "Feature", "properties": { "capacity": "132", "wheelchair": null, "name": "American grill bar restaurant", "legend": "restaurace" }, "geometry": { "type": "Point", "coordinates": [ 17.273262009603837, 49.591585404198781 ] } },
{ "type": "Feature", "properties": { "capacity": "51", "wheelchair": "yes", "name": "Pizza la Mia Stazione", "legend": "restaurace" }, "geometry": { "type": "Point", "coordinates": [ 17.278260309607315, 49.592091604198174 ] } },
{ "type": "Feature", "properties": { "capacity": "75", "wheelchair": null, "name": "Queen", "legend": "restaurace" }, "geometry": { "type": "Point", "coordinates": [ 17.234560609577375, 49.580515204198548 ] } },
{ "type": "Feature", "properties": { "capacity": "93", "wheelchair": null, "name": "U Ladi", "legend": "restaurace" }, "geometry": { "type": "Point", "coordinates": [ 17.248578109586802, 49.586983804200358 ] } },
{ "type": "Feature", "properties": { "capacity": "69", "wheelchair": null, "name": "Avion", "legend": "restaurace" }, "geometry": { "type": "Point", "coordinates": [ 17.22456480956922, 49.596438204211694 ] } },
{ "type": "Feature", "properties": { "capacity": "90", "wheelchair": null, "name": "Benada Restaurant", "legend": "restaurace" }, "geometry": { "type": "Point", "coordinates": [ 17.275768809605545, 49.592361404198819 ] } },
{ "type": "Feature", "properties": { "capacity": "58", "wheelchair": null, "name": "Jízdárna", "legend": "restaurace" }, "geometry": { "type": "Point", "coordinates": [ 17.251588209587432, 49.608458804214791 ] } },
{ "type": "Feature", "properties": { "capacity": "31", "wheelchair": null, "name": "Bistro Zdravá pecka", "legend": "restaurace" }, "geometry": { "type": "Point", "coordinates": [ 17.245330009583729, 49.598508804209068 ] } },
{ "type": "Feature", "properties": { "capacity": "97", "wheelchair": null, "name": "Taverna U Krbu", "legend": "restaurace" }, "geometry": { "type": "Point", "coordinates": [ 17.230238509572487, 49.606792404217849 ] } },
{ "type": "Feature", "properties": { "capacity": "85", "wheelchair": null, "name": "Restaurace Leguán", "legend": "restaurace" }, "geometry": { "type": "Point", "coordinates": [ 17.239094909579606, 49.594607404207601 ] } },
{ "type": "Feature", "properties": { "capacity": "89", "wheelchair": "yes", "name": "Restaurace a penzion U Klásků", "legend": "restaurace" }, "geometry": { "type": "Point", "coordinates": [ 17.252487609590698, 49.570337804187943 ] } },
{ "type": "Feature", "properties": { "capacity": "83", "wheelchair": null, "name": "Restaurace, pizzerie Patricie", "legend": "restaurace" }, "geometry": { "type": "Point", "coordinates": [ 17.249879209588645, 49.573340004190491 ] } },
{ "type": "Feature", "properties": { "capacity": "42", "wheelchair": null, "name": "Hostinec Na Střední", "legend": "restaurace" }, "geometry": { "type": "Point", "coordinates": [ 17.257750609594044, 49.575557804190566 ] } },
{ "type": "Feature", "properties": { "capacity": "86", "wheelchair": null, "name": "Hospůdka na Prefě", "legend": "restaurace" }, "geometry": { "type": "Point", "coordinates": [ 17.271215309602709, 49.587134204196047 ] } },
{ "type": "Feature", "properties": { "capacity": "110", "wheelchair": null, "name": "Pivovar Chomout", "legend": "restaurace" }, "geometry": { "type": "Point", "coordinates": [ 17.231055209570599, 49.641716504242083 ] } },
{ "type": "Feature", "properties": { "capacity": "66", "wheelchair": null, "name": "Green Bar", "legend": "restaurace" }, "geometry": { "type": "Point", "coordinates": [ 17.252759609589241, 49.594318604204688 ] } },
{ "type": "Feature", "properties": { "capacity": "51", "wheelchair": null, "name": "Viet Village", "legend": "restaurace" }, "geometry": { "type": "Point", "coordinates": [ 17.249865009587118, 49.595486104206088 ] } },
{ "type": "Feature", "properties": { "capacity": "54", "wheelchair": null, "name": "Jalta", "legend": "restaurace" }, "geometry": { "type": "Point", "coordinates": [ 17.233604009576737, 49.580037804198405 ] } },
{ "type": "Feature", "properties": { "capacity": "69", "wheelchair": null, "name": "Pizzerie a restaurant OLIS", "legend": "restaurace" }, "geometry": { "type": "Point", "coordinates": [ 17.2594943095955, 49.572219204187896 ] } },
{ "type": "Feature", "properties": { "capacity": "57", "wheelchair": null, "name": "Chata Pod Věží", "legend": "restaurace" }, "geometry": { "type": "Point", "coordinates": [ 17.369015809667122, 49.641519604214828 ] } },
{ "type": "Feature", "properties": { "capacity": "69", "wheelchair": null, "name": "Diwali", "legend": "restaurace" }, "geometry": { "type": "Point", "coordinates": [ 17.255812609592049, 49.584884804197522 ] } },
{ "type": "Feature", "properties": { "capacity": "39", "wheelchair": null, "name": "Coffee Library Zbrojnice Bistro", "legend": "restaurace" }, "geometry": { "type": "Point", "coordinates": [ 17.260050509594265, 49.595663104204242 ] } },
{ "type": "Feature", "properties": { "capacity": "73", "wheelchair": null, "name": "Taste of India", "legend": "restaurace" }, "geometry": { "type": "Point", "coordinates": [ 17.248932909586408, 49.596243604206805 ] } },
{ "type": "Feature", "properties": { "capacity": "100", "wheelchair": null, "name": "Taverna Allegra", "legend": "restaurace" }, "geometry": { "type": "Point", "coordinates": [ 17.255351609591376, 49.590013804201114 ] } },
{ "type": "Feature", "properties": { "capacity": "33", "wheelchair": null, "name": "T2 Thai", "legend": "restaurace" }, "geometry": { "type": "Point", "coordinates": [ 17.24009250957959, 49.604832004214465 ] } },
{ "type": "Feature", "properties": { "capacity": "72", "wheelchair": "no", "name": "Pashupati", "legend": "restaurace" }, "geometry": { "type": "Point", "coordinates": [ 17.251180009587994, 49.596243104206387 ] } },
{ "type": "Feature", "properties": { "capacity": "52", "wheelchair": null, "name": "Restaurace PEVY", "legend": "restaurace" }, "geometry": { "type": "Point", "coordinates": [ 17.252401609588464, 49.601577804209853 ] } },
{ "type": "Feature", "properties": { "capacity": "91", "wheelchair": null, "name": "MORavská DOmácí Restaurace", "legend": "restaurace" }, "geometry": { "type": "Point", "coordinates": [ 17.254428409590265, 49.59647300420589 ] } },
{ "type": "Feature", "properties": { "capacity": "93", "wheelchair": null, "name": "Theresian restaurant", "legend": "restaurace" }, "geometry": { "type": "Point", "coordinates": [ 17.249708309587319, 49.590983104202955 ] } },
{ "type": "Feature", "properties": { "capacity": "51", "wheelchair": null, "name": "Entree restaurant", "legend": "restaurace" }, "geometry": { "type": "Point", "coordinates": [ 17.287036009613619, 49.589892604194887 ] } },
{ "type": "Feature", "properties": { "capacity": "66", "wheelchair": null, "name": "U Kristýna", "legend": "restaurace" }, "geometry": { "type": "Point", "coordinates": [ 17.260823609594766, 49.596486504204648 ] } },
{ "type": "Feature", "properties": { "capacity": "83", "wheelchair": "no", "name": "Mikulda", "legend": "restaurace" }, "geometry": { "type": "Point", "coordinates": [ 17.249887809587186, 49.594712004205562 ] } },
{ "type": "Feature", "properties": { "capacity": "43", "wheelchair": null, "name": "Mex-Dan Restaurant", "legend": "restaurace" }, "geometry": { "type": "Point", "coordinates": [ 17.258527309593823, 49.58667220419823 ] } },
{ "type": "Feature", "properties": { "capacity": "50", "wheelchair": null, "name": "Lobster Family Restaurant", "legend": "restaurace" }, "geometry": { "type": "Point", "coordinates": [ 17.258698509593955, 49.586587804198153 ] } },
{ "type": "Feature", "properties": { "capacity": "100", "wheelchair": null, "name": "Los Capolitos", "legend": "restaurace" }, "geometry": { "type": "Point", "coordinates": [ 17.250254609587625, 49.592115804203644 ] } },
{ "type": "Feature", "properties": { "capacity": "75", "wheelchair": null, "name": "Kikiriki", "legend": "restaurace" }, "geometry": { "type": "Point", "coordinates": [ 17.250526309587787, 49.592617104203917 ] } },
{ "type": "Feature", "properties": { "capacity": "120", "wheelchair": "no", "name": "Greek Grill", "legend": "restaurace" }, "geometry": { "type": "Point", "coordinates": [ 17.252070509588883, 49.592428304203459 ] } },
{ "type": "Feature", "properties": { "capacity": "45", "wheelchair": null, "name": "Sushi restaurant", "legend": "restaurace" }, "geometry": { "type": "Point", "coordinates": [ 17.253806209590163, 49.591610404202584 ] } },
{ "type": "Feature", "properties": { "capacity": "80", "wheelchair": "limited", "name": "Air Bar", "legend": "restaurace" }, "geometry": { "type": "Point", "coordinates": [ 17.210272809559413, 49.592386904211594 ] } },
{ "type": "Feature", "properties": { "capacity": "62", "wheelchair": null, "name": "Restaurace Pod věží", "legend": "restaurace" }, "geometry": { "type": "Point", "coordinates": [ 17.340434009647776, 49.63421260421535 ] } },
{ "type": "Feature", "properties": { "capacity": "79", "wheelchair": "yes", "name": "Hi5h", "legend": "restaurace" }, "geometry": { "type": "Point", "coordinates": [ 17.25106670958818, 49.592359304203598 ] } },
{ "type": "Feature", "properties": { "capacity": "98", "wheelchair": null, "name": "Rusko-ukrajinský restaurant Zina", "legend": "restaurace" }, "geometry": { "type": "Point", "coordinates": [ 17.246074109584463, 49.595347304206705 ] } },
{ "type": "Feature", "properties": { "capacity": "85", "wheelchair": null, "name": "Maison Viet", "legend": "restaurace" }, "geometry": { "type": "Point", "coordinates": [ 17.258167609592938, 49.595891104204703 ] } },
{ "type": "Feature", "properties": { "capacity": "96", "wheelchair": null, "name": "Restaurace u Morousů", "legend": "restaurace" }, "geometry": { "type": "Point", "coordinates": [ 17.254535609590757, 49.590387404201607 ] } },
{ "type": "Feature", "properties": { "capacity": "47", "wheelchair": null, "name": "Side Street s.r.o.", "legend": "restaurace" }, "geometry": { "type": "Point", "coordinates": [ 17.254180509590409, 49.592090704202825 ] } },
{ "type": "Feature", "properties": { "capacity": "79", "wheelchair": null, "name": "Stodola", "legend": "restaurace" }, "geometry": { "type": "Point", "coordinates": [ 17.239251509579645, 49.595416104208127 ] } },
{ "type": "Feature", "properties": { "capacity": "84", "wheelchair": null, "name": "U Morice", "legend": "restaurace" }, "geometry": { "type": "Point", "coordinates": [ 17.251724309588486, 49.594729804205187 ] } },
{ "type": "Feature", "properties": { "capacity": "45", "wheelchair": "no", "name": "Bistro U PANA LILKA", "legend": "restaurace" }, "geometry": { "type": "Point", "coordinates": [ 17.256705309591784, 49.597674004206269 ] } },
{ "type": "Feature", "properties": { "capacity": "42", "wheelchair": null, "name": "Cafe New one", "legend": "restaurace" }, "geometry": { "type": "Point", "coordinates": [ 17.248053109585964, 49.593833904205276 ] } },
{ "type": "Feature", "properties": { "capacity": "72", "wheelchair": null, "name": "U npr. Lukáše", "legend": "restaurace" }, "geometry": { "type": "Point", "coordinates": [ 17.251747809588672, 49.592221404203421 ] } },
{ "type": "Feature", "properties": { "capacity": "42", "wheelchair": null, "name": "Bistro DaG", "legend": "restaurace" }, "geometry": { "type": "Point", "coordinates": [ 17.259012809593489, 49.596524204204968 ] } },
{ "type": "Feature", "properties": { "capacity": "100", "wheelchair": null, "name": "Pizza Pollo", "legend": "restaurace" }, "geometry": { "type": "Point", "coordinates": [ 17.225929809571074, 49.583742004202485 ] } },
{ "type": "Feature", "properties": { "capacity": "71", "wheelchair": null, "name": "RISTORANTE POLLO", "legend": "restaurace" }, "geometry": { "type": "Point", "coordinates": [ 17.226055609571159, 49.583605104202384 ] } },
{ "type": "Feature", "properties": { "capacity": "51", "wheelchair": null, "name": null, "legend": "restaurace" }, "geometry": { "type": "Point", "coordinates": [ 17.251128509588586, 49.587300904200063 ] } },
{ "type": "Feature", "properties": { "capacity": "42", "wheelchair": null, "name": "U Máci", "legend": "restaurace" }, "geometry": { "type": "Point", "coordinates": [ 17.343555109650065, 49.632623904213624 ] } },
{ "type": "Feature", "properties": { "capacity": "96", "wheelchair": null, "name": "Restaurace Na Hřišti", "legend": "restaurace" }, "geometry": { "type": "Point", "coordinates": [ 17.286147509612718, 49.593883004197856 ] } },
{ "type": "Feature", "properties": { "capacity": "46", "wheelchair": "yes", "name": "Caruso Pizza & Pasta", "legend": "restaurace" }, "geometry": { "type": "Point", "coordinates": [ 17.223773409568665, 49.596359204211815 ] } },
{ "type": "Feature", "properties": { "capacity": "48", "wheelchair": null, "name": "Mama's Burger", "legend": "restaurace" }, "geometry": { "type": "Point", "coordinates": [ 17.264801109598494, 49.582888204194376 ] } },
{ "type": "Feature", "properties": { "capacity": "73", "wheelchair": null, "name": "Restaurace Nutrend", "legend": "restaurace" }, "geometry": { "type": "Point", "coordinates": [ 17.296990109619262, 49.608814604206231 ] } },
{ "type": "Feature", "properties": { "capacity": "66", "wheelchair": null, "name": "Zhe Wen - Wok & Sushi", "legend": "restaurace" }, "geometry": { "type": "Point", "coordinates": [ 17.279543309607451, 49.602897104205475 ] } },
{ "type": "Feature", "properties": { "capacity": "68", "wheelchair": null, "name": "Restaurace Globus", "legend": "restaurace" }, "geometry": { "type": "Point", "coordinates": [ 17.221981009567031, 49.601824204216001 ] } },
{ "type": "Feature", "properties": { "capacity": "122", "wheelchair": null, "name": "Grill Globus", "legend": "restaurace" }, "geometry": { "type": "Point", "coordinates": [ 17.221766609566878, 49.601596904215803 ] } },
{ "type": "Feature", "properties": { "capacity": "29", "wheelchair": null, "name": "BEATA lunch & coffee", "legend": "restaurace" }, "geometry": { "type": "Point", "coordinates": [ 17.266589409599231, 49.590454204199318 ] } },
{ "type": "Feature", "properties": { "capacity": "50", "wheelchair": null, "name": "Bistro Paulus", "legend": "restaurace" }, "geometry": { "type": "Point", "coordinates": [ 17.261840709595969, 49.589267904199424 ] } },
{ "type": "Feature", "properties": { "capacity": "73", "wheelchair": null, "name": "Zhu Te Miao", "legend": "restaurace" }, "geometry": { "type": "Point", "coordinates": [ 17.271345209602533, 49.591121204198835 ] } },
{ "type": "Feature", "properties": { "capacity": "86", "wheelchair": null, "name": "Jídelna Poliklinika Agel", "legend": "restaurace" }, "geometry": { "type": "Point", "coordinates": [ 17.276612209606213, 49.591208104197811 ] } },
{ "type": "Feature", "properties": { "capacity": "78", "wheelchair": null, "name": "Potrefená husa Olomouc", "legend": "restaurace" }, "geometry": { "type": "Point", "coordinates": [ 17.252797709589281, 49.594040604204494 ] } },
{ "type": "Feature", "properties": { "capacity": "57", "wheelchair": null, "name": "Koza zůstala celá", "legend": "restaurace" }, "geometry": { "type": "Point", "coordinates": [ 17.25062910958793, 49.591543504203194 ] } },
{ "type": "Feature", "properties": { "capacity": "47", "wheelchair": null, "name": "Kafec", "legend": "restaurace" }, "geometry": { "type": "Point", "coordinates": [ 17.255124909590918, 49.594115104204064 ] } },
{ "type": "Feature", "properties": { "capacity": "44", "wheelchair": null, "name": "CÔDÔ Palackého", "legend": "restaurace" }, "geometry": { "type": "Point", "coordinates": [ 17.245469809584019, 49.595647104207046 ] } },
{ "type": "Feature", "properties": { "capacity": "58", "wheelchair": null, "name": "Slovanský dům", "legend": "restaurace" }, "geometry": { "type": "Point", "coordinates": [ 17.245670809584041, 49.597318204208193 ] } },
{ "type": "Feature", "properties": { "capacity": "73", "wheelchair": null, "name": "Kateřinská 10", "legend": "restaurace" }, "geometry": { "type": "Point", "coordinates": [ 17.254250309590578, 49.590158604201505 ] } },
{ "type": "Feature", "properties": { "capacity": "66", "wheelchair": null, "name": "Hospůdka Na Váze", "legend": "restaurace" }, "geometry": { "type": "Point", "coordinates": [ 17.360516509662535, 49.623187704203758 ] } },
{ "type": "Feature", "properties": { "capacity": "58", "wheelchair": null, "name": "Risto", "legend": "restaurace" }, "geometry": { "type": "Point", "coordinates": [ 17.285296009612548, 49.587670704193705 ] } },
{ "type": "Feature", "properties": { "capacity": "56", "wheelchair": null, "name": "Maido", "legend": "restaurace" }, "geometry": { "type": "Point", "coordinates": [ 17.251697209588411, 49.595510904205696 ] } },
{ "type": "Feature", "properties": { "capacity": "98", "wheelchair": null, "name": "Čtyřlístek", "legend": "restaurace" }, "geometry": { "type": "Point", "coordinates": [ 17.248031909585876, 49.59483610420601 ] } },
{ "type": "Feature", "properties": { "capacity": "79", "wheelchair": null, "name": "Pasta Bar", "legend": "restaurace" }, "geometry": { "type": "Point", "coordinates": [ 17.248921109586519, 49.594510004205617 ] } },
{ "type": "Feature", "properties": { "capacity": "98", "wheelchair": null, "name": "Banyan Restaurant", "legend": "restaurace" }, "geometry": { "type": "Point", "coordinates": [ 17.25049030958759, 49.594943804205599 ] } },
{ "type": "Feature", "properties": { "capacity": "43", "wheelchair": null, "name": "Sushi bar Yanagi", "legend": "restaurace" }, "geometry": { "type": "Point", "coordinates": [ 17.248403309587584, 49.573936404191237 ] } },
{ "type": "Feature", "properties": { "capacity": "85", "wheelchair": null, "name": "Pho co Asian foods", "legend": "restaurace" }, "geometry": { "type": "Point", "coordinates": [ 17.262121909595617, 49.597078904204793 ] } },
{ "type": "Feature", "properties": { "capacity": "28", "wheelchair": null, "name": "Lobster Bistro", "legend": "restaurace" }, "geometry": { "type": "Point", "coordinates": [ 17.258627709593878, 49.586920304198387 ] } },
{ "type": "Feature", "properties": { "capacity": "92", "wheelchair": null, "name": "MEX-DAN restaurant", "legend": "restaurace" }, "geometry": { "type": "Point", "coordinates": [ 17.256782609592541, 49.587502404199149 ] } },
{ "type": "Feature", "properties": { "capacity": "65", "wheelchair": null, "name": "Mango", "legend": "restaurace" }, "geometry": { "type": "Point", "coordinates": [ 17.256748009592503, 49.587593504199255 ] } },
{ "type": "Feature", "properties": { "capacity": "76", "wheelchair": null, "name": "Červené jablko", "legend": "restaurace" }, "geometry": { "type": "Point", "coordinates": [ 17.256715309592487, 49.587679604199302 ] } },
{ "type": "Feature", "properties": { "capacity": "53", "wheelchair": null, "name": "Bombay Express", "legend": "restaurace" }, "geometry": { "type": "Point", "coordinates": [ 17.256663209592435, 49.58781670419939 ] } },
{ "type": "Feature", "properties": { "capacity": "66", "wheelchair": null, "name": "Spaghetti Parmigiano", "legend": "restaurace" }, "geometry": { "type": "Point", "coordinates": [ 17.257103809592756, 49.587487904199065 ] } },
{ "type": "Feature", "properties": { "capacity": "33", "wheelchair": null, "name": "TENMANYA - Running Sushi", "legend": "restaurace" }, "geometry": { "type": "Point", "coordinates": [ 17.257942509593359, 49.58733650419876 ] } },
{ "type": "Feature", "properties": { "capacity": "94", "wheelchair": null, "name": "Kung Food", "legend": "restaurace" }, "geometry": { "type": "Point", "coordinates": [ 17.242618209581941, 49.596653004208335 ] } },
{ "type": "Feature", "properties": { "capacity": "40", "wheelchair": null, "name": "Pizza Hradlo", "legend": "restaurace" }, "geometry": { "type": "Point", "coordinates": [ 17.242973409581563, 49.60558030421447 ] } },
{ "type": "Feature", "properties": { "capacity": "104", "wheelchair": null, "name": "Motorest Bigboss", "legend": "restaurace" }, "geometry": { "type": "Point", "coordinates": [ 17.228127909574603, 49.554548204181586 ] } },
{ "type": "Feature", "properties": { "capacity": "52", "wheelchair": null, "name": "818 Restaurant", "legend": "restaurace" }, "geometry": { "type": "Point", "coordinates": [ 17.277377809606772, 49.590975304197492 ] } },
{ "type": "Feature", "properties": { "capacity": "56", "wheelchair": null, "name": "CÔDÔ", "legend": "restaurace" }, "geometry": { "type": "Point", "coordinates": [ 17.259185009593612, 49.5963664042049 ] } },
{ "type": "Feature", "properties": { "capacity": "89", "wheelchair": null, "name": "Špagetárna", "legend": "restaurace" }, "geometry": { "type": "Point", "coordinates": [ 17.258371209593047, 49.596384104205057 ] } },
{ "type": "Feature", "properties": { "capacity": "68", "wheelchair": null, "name": "Sushi Hub", "legend": "restaurace" }, "geometry": { "type": "Point", "coordinates": [ 17.24892970958642, 49.596188304206819 ] } },
{ "type": "Feature", "properties": { "capacity": "92", "wheelchair": null, "name": "Litchi", "legend": "restaurace" }, "geometry": { "type": "Point", "coordinates": [ 17.225048809570399, 49.584379404203133 ] } },
{ "type": "Feature", "properties": { "capacity": "40", "wheelchair": "yes", "name": "Fishi Sushi", "legend": "restaurace" }, "geometry": { "type": "Point", "coordinates": [ 17.257157409592097, 49.59785350420627 ] } },
{ "type": "Feature", "properties": { "capacity": "80", "wheelchair": null, "name": "Restaurace Rigani", "legend": "restaurace" }, "geometry": { "type": "Point", "coordinates": [ 17.21798770956466, 49.595279504212144 ] } },
{ "type": "Feature", "properties": { "capacity": "54", "wheelchair": null, "name": "WAY", "legend": "restaurace" }, "geometry": { "type": "Point", "coordinates": [ 17.252033909588917, 49.591564404202927 ] } },
{ "type": "Feature", "properties": { "capacity": "95", "wheelchair": null, "name": "U Floriána", "legend": "restaurace" }, "geometry": { "type": "Point", "coordinates": [ 17.249403209586745, 49.596262504206699 ] } },
{ "type": "Feature", "properties": { "capacity": "99", "wheelchair": null, "name": "Vosíme", "legend": "restaurace" }, "geometry": { "type": "Point", "coordinates": [ 17.253411909589438, 49.597971804207127 ] } }
]
}
