{
"type": "FeatureCollection",
"name": "highway_pedestrian_Olomouc",
"crs": { "type": "name", "properties": { "name": "urn:ogc:def:crs:OGC:1.3:CRS84" } },
"features": [
{ "type": "Feature", "properties": { "legend": "chodník" }, "geometry": { "type": "LineString", "coordinates": [ [ 17.250003509587277, 49.594671304205498 ], [ 17.249849909587144, 49.595053104205746 ], [ 17.249831809587125, 49.595098104205782 ], [ 17.249800909587098, 49.595216604205881 ] ] } },
{ "type": "Feature", "properties": { "legend": "chodník" }, "geometry": { "type": "LineString", "coordinates": [ [ 17.251363009588427, 49.591834404203205 ], [ 17.251339109588411, 49.59189430420323 ], [ 17.251308209588387, 49.591942604203297 ], [ 17.251280809588351, 49.591985404203371 ], [ 17.251264909588347, 49.592010404203371 ], [ 17.25124880958834, 49.592037104203385 ], [ 17.251244109588331, 49.592044904203348 ], [ 17.251212909588308, 49.592096704203435 ], [ 17.251176409588272, 49.592157304203447 ], [ 17.251157709588256, 49.592188404203561 ], [ 17.251119809588221, 49.592259004203576 ], [ 17.25111880958822, 49.592286404203591 ], [ 17.251125509588224, 49.592312904203546 ], [ 17.251134409588243, 49.592329904203595 ], [ 17.25114720958824, 49.592345404203598 ], [ 17.251157809588236, 49.592355604203611 ], [ 17.251164309588273, 49.592361904203656 ], [ 17.251177509588278, 49.592370104203582 ], [ 17.251191009588265, 49.592378404203643 ] ] } },
{ "type": "Feature", "properties": { "legend": "chodník" }, "geometry": { "type": "LineString", "coordinates": [ [ 17.251363009588427, 49.591834404203205 ], [ 17.251397609588448, 49.591792904203153 ], [ 17.251456109588499, 49.591737104203133 ], [ 17.251518209588554, 49.591687304203056 ], [ 17.251686109588682, 49.591561004202958 ] ] } },
{ "type": "Feature", "properties": { "legend": "chodník" }, "geometry": { "type": "LineString", "coordinates": [ [ 17.251622209588678, 49.590849404202487 ], [ 17.251658809588701, 49.590907504202526 ], [ 17.251760009588768, 49.591051104202592 ], [ 17.251856409588829, 49.591185604202671 ], [ 17.251901909588849, 49.591249104202724 ] ] } },
{ "type": "Feature", "properties": { "legend": "chodník" }, "geometry": { "type": "LineString", "coordinates": [ [ 17.254222909590421, 49.592012904202853 ], [ 17.254353209590523, 49.591983904202728 ], [ 17.254798809590849, 49.59188530420257 ], [ 17.255004209590986, 49.591866004202529 ] ] } },
{ "type": "Feature", "properties": { "legend": "chodník" }, "geometry": { "type": "LineString", "coordinates": [ [ 17.248655709586437, 49.593067404204668 ], [ 17.248708609586473, 49.593089804204624 ], [ 17.249417109586958, 49.593390404204726 ], [ 17.249783609587212, 49.593511004204714 ] ] } },
{ "type": "Feature", "properties": { "legend": "chodník" }, "geometry": { "type": "LineString", "coordinates": [ [ 17.250812109588054, 49.59161610420319 ], [ 17.250853909588088, 49.59161670420319 ], [ 17.25089160958812, 49.591621204203115 ], [ 17.25093560958814, 49.591631704203166 ], [ 17.251051409588225, 49.591674604203121 ], [ 17.251193709588321, 49.591737104203197 ], [ 17.251329209588409, 49.591815304203266 ], [ 17.251363009588427, 49.591834404203205 ] ] } },
{ "type": "Feature", "properties": { "legend": "chodník" }, "geometry": { "type": "LineString", "coordinates": [ [ 17.254601909590647, 49.592686004203159 ], [ 17.254363309590467, 49.592790904203369 ], [ 17.25418250959034, 49.592877204203411 ], [ 17.254001109590206, 49.5929626042035 ], [ 17.253976409590187, 49.592973404203505 ], [ 17.25362170958994, 49.593128504203726 ], [ 17.253544509589876, 49.59316530420368 ], [ 17.253453609589812, 49.593214304203777 ], [ 17.25338660958975, 49.59324720420382 ] ] } },
{ "type": "Feature", "properties": { "legend": "chodník" }, "geometry": { "type": "LineString", "coordinates": [ [ 17.254762409590761, 49.59265590420307 ], [ 17.254636409590663, 49.592675504203143 ], [ 17.254601909590647, 49.592686004203159 ] ] } },
{ "type": "Feature", "properties": { "legend": "chodník" }, "geometry": { "type": "LineString", "coordinates": [ [ 17.248828009586465, 49.59446200420556 ], [ 17.248694809586365, 49.594530804205647 ], [ 17.248551709586252, 49.594610404205739 ], [ 17.248348909586117, 49.59472950420578 ], [ 17.248227409586018, 49.594804204205907 ], [ 17.248039709585882, 49.594939504206003 ], [ 17.247956509585819, 49.595003404206125 ], [ 17.247802409585695, 49.59512150420619 ], [ 17.247739709585652, 49.59516700420626 ], [ 17.247715309585637, 49.595180104206271 ], [ 17.247694309585615, 49.595189004206262 ], [ 17.247671009585599, 49.595195004206268 ], [ 17.247641509585581, 49.595197304206273 ], [ 17.247620409585569, 49.595195904206285 ], [ 17.247602009585556, 49.595191604206313 ] ] } },
{ "type": "Feature", "properties": { "legend": "chodník" }, "geometry": { "type": "LineString", "coordinates": [ [ 17.250812109588054, 49.59161610420319 ], [ 17.250813809588056, 49.591581604203192 ], [ 17.250818609588073, 49.591547204203088 ], [ 17.250824409588059, 49.59152350420311 ], [ 17.25083560958808, 49.59149480420308 ], [ 17.250850009588103, 49.591469704203035 ], [ 17.250977709588188, 49.591297904202968 ], [ 17.251115109588291, 49.591159004202765 ] ] } },
{ "type": "Feature", "properties": { "legend": "chodník" }, "geometry": { "type": "LineString", "coordinates": [ [ 17.250132909587542, 49.592118404203703 ], [ 17.250178209587585, 49.59208250420366 ], [ 17.25068730958797, 49.591682304203275 ], [ 17.250750809588009, 49.591633704203232 ], [ 17.250775509588031, 49.591623704203208 ], [ 17.250812109588054, 49.59161610420319 ] ] } },
{ "type": "Feature", "properties": { "legend": "chodník" }, "geometry": { "type": "LineString", "coordinates": [ [ 17.254222909590421, 49.592012904202853 ], [ 17.254323209590495, 49.592103004202855 ], [ 17.254587709590638, 49.59265630420316 ], [ 17.254601909590647, 49.592686004203159 ] ] } },
{ "type": "Feature", "properties": { "legend": "chodník" }, "geometry": { "type": "LineString", "coordinates": [ [ 17.253809209590152, 49.59185060420274 ], [ 17.253864209590194, 49.591856204202728 ], [ 17.253928909590233, 49.591866004202771 ], [ 17.253971509590279, 49.591874504202764 ], [ 17.254019809590297, 49.591886804202737 ], [ 17.254046609590311, 49.591896504202744 ], [ 17.254170809590395, 49.59198410420278 ], [ 17.254222909590421, 49.592012904202853 ] ] } },
{ "type": "Feature", "properties": { "legend": "chodník" }, "geometry": { "type": "LineString", "coordinates": [ [ 17.250162109587443, 49.593905504204898 ], [ 17.250197609587463, 49.593861004204875 ], [ 17.250345709587588, 49.593719404204755 ], [ 17.250589109587779, 49.593502004204538 ], [ 17.250901509588008, 49.593203404204317 ], [ 17.250947109588044, 49.593185704204231 ], [ 17.25100490958809, 49.593178504204232 ] ] } },
{ "type": "Feature", "properties": { "legend": "chodník" }, "geometry": { "type": "LineString", "coordinates": [ [ 17.252692509589195, 49.594152304204599 ], [ 17.252937209589348, 49.594347004204678 ], [ 17.253578909589784, 49.594854404204924 ], [ 17.254080709590109, 49.595172904204951 ], [ 17.254331809590273, 49.595361704205168 ] ] } },
{ "type": "Feature", "properties": { "legend": "chodník" }, "geometry": { "type": "LineString", "coordinates": [ [ 17.254762409590761, 49.59265590420307 ], [ 17.254806609590776, 49.592871604203253 ], [ 17.254819009590779, 49.593083004203393 ] ] } },
{ "type": "Feature", "properties": { "legend": "chodník" }, "geometry": { "type": "LineString", "coordinates": [ [ 17.255727109591216, 49.595834504205143 ], [ 17.25572710959122, 49.595820604205187 ], [ 17.255723409591219, 49.595808804205177 ], [ 17.255713709591209, 49.595794604205153 ] ] } },
{ "type": "Feature", "properties": { "legend": "chodník" }, "geometry": { "type": "LineString", "coordinates": [ [ 17.254596209590506, 49.594728304204637 ], [ 17.25438120959036, 49.594664404204593 ], [ 17.254221009590246, 49.594595104204565 ], [ 17.254201309590226, 49.594586604204594 ], [ 17.254134109590186, 49.59455350420459 ], [ 17.253986309590086, 49.594480704204607 ], [ 17.253747509589928, 49.594398604204592 ], [ 17.253273609589606, 49.594244004204519 ], [ 17.253106309589494, 49.594167304204518 ], [ 17.252951209589398, 49.594082504204501 ] ] } },
{ "type": "Feature", "properties": { "legend": "chodník" }, "geometry": { "type": "LineString", "coordinates": [ [ 17.254662809590808, 49.590954304202008 ], [ 17.254566309590743, 49.590957504201988 ], [ 17.254498409590703, 49.590953504201984 ], [ 17.254217909590505, 49.590924004202044 ], [ 17.253925409590302, 49.590863004201971 ], [ 17.253890509590281, 49.590855704202035 ], [ 17.253878109590275, 49.590851004202044 ], [ 17.25383520959025, 49.590834704201988 ] ] } },
{ "type": "Feature", "properties": { "legend": "chodník" }, "geometry": { "type": "LineString", "coordinates": [ [ 17.25486850959075, 49.593906004204037 ], [ 17.255040809590838, 49.594377404204316 ], [ 17.255055009590844, 49.594431704204304 ], [ 17.255139309590884, 49.594754204204513 ], [ 17.255144409590891, 49.594773504204539 ], [ 17.255114509590864, 49.594879304204611 ] ] } },
{ "type": "Feature", "properties": { "legend": "chodník" }, "geometry": { "type": "LineString", "coordinates": [ [ 17.25528950959114, 49.592700004203067 ], [ 17.255160209591047, 49.592712604203136 ], [ 17.254858209590822, 49.592696904203194 ], [ 17.254836309590818, 49.592687504203141 ], [ 17.254762409590761, 49.59265590420307 ] ] } },
{ "type": "Feature", "properties": { "legend": "chodník" }, "geometry": { "type": "LineString", "coordinates": [ [ 17.253706809590145, 49.590870204202119 ], [ 17.253422409589948, 49.590743204202049 ] ] } },
{ "type": "Feature", "properties": { "legend": "chodník" }, "geometry": { "type": "LineString", "coordinates": [ [ 17.254363309590467, 49.592790904203369 ], [ 17.254340309590461, 49.592770004203295 ], [ 17.25405720959029, 49.592513604203134 ], [ 17.253909409590193, 49.592393704203161 ], [ 17.253789909590107, 49.592257704203057 ] ] } },
{ "type": "Feature", "properties": { "legend": "chodník" }, "geometry": { "type": "LineString", "coordinates": [ [ 17.253879509590067, 49.593931804204168 ], [ 17.253724409589939, 49.593958604204282 ], [ 17.253610409589864, 49.593968904204274 ] ] } },
{ "type": "Feature", "properties": { "legend": "chodník" }, "geometry": { "type": "LineString", "coordinates": [ [ 17.25338660958975, 49.59324720420382 ], [ 17.253481409589817, 49.593337104203819 ], [ 17.253520309589842, 49.593406104203929 ], [ 17.25366160958993, 49.593656704204072 ], [ 17.253851209590035, 49.593893004204219 ], [ 17.253879509590067, 49.593931804204168 ], [ 17.253917909590076, 49.593989304204271 ], [ 17.254012309590141, 49.594046804204268 ], [ 17.2541067095902, 49.594046804204204 ], [ 17.254174709590245, 49.594033304204196 ] ] } },
{ "type": "Feature", "properties": { "legend": "chodník" }, "geometry": { "type": "LineString", "coordinates": [ [ 17.255114509590864, 49.594879304204611 ], [ 17.254717909590582, 49.594774704204667 ], [ 17.254596209590506, 49.594728304204637 ] ] } },
{ "type": "Feature", "properties": { "legend": "chodník" }, "geometry": { "type": "LineString", "coordinates": [ [ 17.250003509587277, 49.594671304205498 ], [ 17.250039309587297, 49.594678804205401 ], [ 17.250603109587679, 49.594797104205441 ], [ 17.250675309587741, 49.594815604205493 ] ] } },
{ "type": "Feature", "properties": { "legend": "chodník" }, "geometry": { "type": "LineString", "coordinates": [ [ 17.250675309587741, 49.594815604205493 ], [ 17.250935909587916, 49.594892904205452 ], [ 17.251035409587992, 49.594911304205432 ], [ 17.251124709588044, 49.594917104205429 ], [ 17.25125780958815, 49.594911204205381 ], [ 17.251843509588561, 49.594876204205249 ] ] } },
{ "type": "Feature", "properties": { "legend": "chodník" }, "geometry": { "type": "LineString", "coordinates": [ [ 17.252884409589576, 49.59069650420215 ], [ 17.252841109589554, 49.590718804202155 ], [ 17.25276760958949, 49.590756004202198 ], [ 17.252403409589217, 49.590983904202396 ], [ 17.252325109589165, 49.591032104202455 ], [ 17.25220760958906, 49.591099704202584 ], [ 17.252106009589003, 49.591152304202595 ], [ 17.251961809588884, 49.591223604202689 ], [ 17.251952609588887, 49.591227604202679 ], [ 17.251901909588849, 49.591249104202724 ] ] } },
{ "type": "Feature", "properties": { "legend": "chodník" }, "geometry": { "type": "LineString", "coordinates": [ [ 17.229474909572804, 49.594706704209528 ], [ 17.229521109572829, 49.594779204209516 ], [ 17.229734209572978, 49.594800304209514 ], [ 17.230314409573392, 49.594857904209455 ] ] } },
{ "type": "Feature", "properties": { "legend": "chodník" }, "geometry": { "type": "LineString", "coordinates": [ [ 17.254985009590634, 49.596748604205978 ], [ 17.255017309590666, 49.596740504205933 ], [ 17.255048509590683, 49.596734704205907 ], [ 17.255081909590693, 49.596732004205961 ], [ 17.255128309590742, 49.596731304205861 ], [ 17.255353709590903, 49.596743704205863 ], [ 17.255593309591056, 49.596769904205836 ], [ 17.255606909591073, 49.596770804205867 ], [ 17.255712509591145, 49.596789404205772 ], [ 17.256093909591417, 49.596870004205819 ], [ 17.256320909591562, 49.596915804205814 ], [ 17.256351509591585, 49.596926604205791 ], [ 17.256369509591604, 49.59693870420584 ], [ 17.256381209591598, 49.596950004205773 ], [ 17.256392909591614, 49.596966304205878 ] ] } },
{ "type": "Feature", "properties": { "legend": "chodník" }, "geometry": { "type": "LineString", "coordinates": [ [ 17.25338660958975, 49.59324720420382 ], [ 17.253336209589722, 49.593267804203819 ], [ 17.253319909589706, 49.593274504203904 ], [ 17.253212209589627, 49.593313604203942 ], [ 17.253087109589536, 49.593358204203987 ], [ 17.252968109589453, 49.59341160420405 ], [ 17.252913809589415, 49.593437004204112 ], [ 17.252712209589259, 49.593531104204146 ], [ 17.252548709589142, 49.593607304204255 ], [ 17.252396709589018, 49.593683904204333 ], [ 17.252268209588927, 49.593748704204465 ], [ 17.252246909588923, 49.593757604204391 ], [ 17.252218709588885, 49.593770304204419 ], [ 17.252127809588835, 49.593811504204488 ] ] } },
{ "type": "Feature", "properties": { "legend": "chodník" }, "geometry": { "type": "LineString", "coordinates": [ [ 17.261423709595078, 49.597934504205568 ], [ 17.261438009595086, 49.597933604205529 ], [ 17.261452209595092, 49.597933504205564 ], [ 17.261464109595117, 49.597934304205509 ], [ 17.261476909595114, 49.597936004205543 ], [ 17.26149250959514, 49.597939404205562 ], [ 17.261503809595137, 49.597943004205547 ], [ 17.261512709595149, 49.597946704205491 ], [ 17.261523509595136, 49.597954904205565 ], [ 17.261532709595144, 49.597962404205568 ], [ 17.261573309595178, 49.597995404205541 ], [ 17.261613909595209, 49.598012704205573 ], [ 17.261655509595247, 49.598027904205502 ], [ 17.261694409595265, 49.598031204205505 ], [ 17.261709409595262, 49.5980345042056 ], [ 17.261710109595271, 49.598031704205546 ], [ 17.261745009595302, 49.598034804205525 ], [ 17.261784209595326, 49.598037904205491 ], [ 17.261783909595334, 49.598040604205494 ], [ 17.261834709595366, 49.598041104205521 ], [ 17.261857909595385, 49.59804080420556 ], [ 17.261901909595409, 49.598038804205537 ], [ 17.261940009595435, 49.598047504205525 ], [ 17.261985909595474, 49.598071804205524 ], [ 17.262012209595486, 49.598063904205425 ], [ 17.262008009595469, 49.598057904205518 ], [ 17.262057109595528, 49.598043804205446 ], [ 17.26204740959551, 49.598030804205514 ], [ 17.262107009595567, 49.598013904205423 ], [ 17.262116009595569, 49.598027304205431 ], [ 17.262160109595595, 49.598014904205463 ], [ 17.262146009595579, 49.597993104205429 ], [ 17.262142809595584, 49.597993904205403 ], [ 17.26211820959557, 49.597990404205433 ], [ 17.262098909595561, 49.597986004205453 ], [ 17.262090509595545, 49.597972804205455 ], [ 17.262067309595526, 49.597937404205425 ], [ 17.262058609595524, 49.597924104205404 ], [ 17.262025609595508, 49.597874004205394 ], [ 17.262016809595497, 49.597860604205373 ], [ 17.261994609595487, 49.597826804205347 ], [ 17.261986309595482, 49.597814304205308 ], [ 17.261962809595467, 49.597797504205289 ], [ 17.261959209595471, 49.597794904205344 ], [ 17.261951709595461, 49.597789804205341 ], [ 17.261925909595444, 49.597777104205363 ], [ 17.261913209595431, 49.597771004205285 ], [ 17.261901809595418, 49.597766404205309 ], [ 17.261885009595417, 49.597761004205289 ], [ 17.261798809595355, 49.597729404205324 ], [ 17.26161010959521, 49.597662804205314 ], [ 17.26152000959517, 49.597630304205289 ], [ 17.261409309595106, 49.597590404205292 ], [ 17.261264609594988, 49.597538204205371 ], [ 17.261252409594992, 49.597534804205281 ], [ 17.261223309594968, 49.597526104205286 ], [ 17.261209809594959, 49.597480004205231 ], [ 17.261189609594943, 49.597482404205294 ], [ 17.261142309594906, 49.59748800420531 ] ] } },
{ "type": "Feature", "properties": { "legend": "chodník" }, "geometry": { "type": "LineString", "coordinates": [ [ 17.252536109589112, 49.594014104204504 ], [ 17.252454609589044, 49.593963904204521 ], [ 17.25233360958897, 49.593898104204477 ], [ 17.252229009588905, 49.593850204204458 ], [ 17.252127809588835, 49.593811504204488 ] ] } },
{ "type": "Feature", "properties": { "legend": "chodník" }, "geometry": { "type": "LineString", "coordinates": [ [ 17.25383700958993, 49.595334504205184 ], [ 17.253121609589449, 49.594969404205052 ], [ 17.252472809589019, 49.594608204204981 ], [ 17.252416409588982, 49.594581504204967 ], [ 17.251990909588685, 49.59437970420489 ], [ 17.25191990958864, 49.594350004204891 ], [ 17.251799009588563, 49.594302104204878 ] ] } },
{ "type": "Feature", "properties": { "legend": "chodník" }, "geometry": { "type": "LineString", "coordinates": [ [ 17.250127609587413, 49.594031204205052 ], [ 17.249969409587298, 49.594050604205094 ], [ 17.249862709587223, 49.594072704205026 ], [ 17.249773509587154, 49.594101604205143 ], [ 17.249241009586754, 49.594277704205382 ], [ 17.248828009586465, 49.59446200420556 ] ] } },
{ "type": "Feature", "properties": { "legend": "chodník" }, "geometry": { "type": "LineString", "coordinates": [ [ 17.251654309588524, 49.59347470420434 ], [ 17.251709009588559, 49.593442004204313 ], [ 17.251752009588593, 49.593401904204256 ], [ 17.251786609588624, 49.593351504204229 ], [ 17.252036609588835, 49.592920804203928 ] ] } },
{ "type": "Feature", "properties": { "legend": "chodník" }, "geometry": { "type": "LineString", "coordinates": [ [ 17.252127009588811, 49.593994504204623 ], [ 17.252131809588821, 49.593997304204578 ], [ 17.252142709588842, 49.594001504204535 ], [ 17.25214960958883, 49.594003504204579 ], [ 17.252157809588834, 49.59400510420457 ], [ 17.252170909588848, 49.594007204204601 ], [ 17.252182109588844, 49.594007104204614 ], [ 17.252193009588872, 49.594005604204554 ], [ 17.252201609588859, 49.594004104204579 ], [ 17.252218109588885, 49.593999404204546 ], [ 17.252228509588878, 49.593994404204565 ], [ 17.252237109588897, 49.593989004204566 ], [ 17.252244909588907, 49.59398200420457 ], [ 17.252250509588904, 49.593979304204559 ], [ 17.252253309588905, 49.593976104204515 ], [ 17.252255709588905, 49.593972204204547 ], [ 17.252256009588912, 49.593968604204548 ], [ 17.252255409588894, 49.593966104204611 ], [ 17.25225490958892, 49.593950704204502 ], [ 17.252250409588907, 49.593940204204493 ], [ 17.252245209588914, 49.593932804204528 ], [ 17.252247409588911, 49.593928504204477 ], [ 17.252248109588908, 49.593925804204481 ], [ 17.25224670958891, 49.593922504204514 ], [ 17.252243909588909, 49.593918704204491 ], [ 17.252238509588906, 49.593915704204498 ], [ 17.252232509588897, 49.593913404204528 ], [ 17.25222350958888, 49.593912304204601 ], [ 17.252198709588875, 49.593905804204539 ], [ 17.252191209588869, 49.593905104204516 ], [ 17.252185609588867, 49.593902604204509 ], [ 17.252177609588866, 49.593900604204521 ], [ 17.252170509588861, 49.593901004204554 ], [ 17.252163709588846, 49.59390360420457 ], [ 17.252159009588855, 49.59390690420453 ], [ 17.252151809588828, 49.593908204204567 ], [ 17.252145209588832, 49.593909704204499 ], [ 17.252135409588824, 49.593913604204545 ], [ 17.252124809588825, 49.593918804204542 ], [ 17.252116709588794, 49.593924604204553 ], [ 17.252104609588805, 49.593930604204559 ], [ 17.252101409588811, 49.593934104204557 ], [ 17.252101609588799, 49.593947304204541 ], [ 17.252100909588808, 49.593952604204567 ], [ 17.2521005095888, 49.593964304204597 ], [ 17.252102709588801, 49.593969504204594 ], [ 17.252106009588804, 49.593977404204587 ], [ 17.252105709588808, 49.593984204204581 ], [ 17.252108909588799, 49.593988104204612 ], [ 17.252112909588821, 49.593991304204536 ], [ 17.25211960958881, 49.593993804204629 ], [ 17.252127009588811, 49.593994504204623 ] ] } },
{ "type": "Feature", "properties": { "legend": "chodník" }, "geometry": { "type": "LineString", "coordinates": [ [ 17.254652909590877, 49.590131004201417 ], [ 17.254456309590712, 49.590275304201548 ], [ 17.254403509590674, 49.590316804201549 ], [ 17.254074909590429, 49.590611404201837 ], [ 17.253947509590319, 49.590730004201959 ], [ 17.25383520959025, 49.590834704201988 ] ] } },
{ "type": "Feature", "properties": { "legend": "chodník" }, "geometry": { "type": "LineString", "coordinates": [ [ 17.250675309587741, 49.594815604205493 ], [ 17.250656609587718, 49.594937804205607 ], [ 17.250658009587706, 49.594982504205568 ], [ 17.250664609587727, 49.595040804205588 ], [ 17.250667809587704, 49.595071504205613 ], [ 17.25066900958771, 49.59511850420563 ], [ 17.250652909587686, 49.595265204205774 ] ] } },
{ "type": "Feature", "properties": { "legend": "chodník" }, "geometry": { "type": "LineString", "coordinates": [ [ 17.250038309587243, 49.595384304205993 ], [ 17.250270109587404, 49.595386004205935 ], [ 17.250437209587531, 49.595386604205892 ], [ 17.250502009587578, 49.595386704205886 ], [ 17.250648709587693, 49.595387104205827 ], [ 17.250932109587882, 49.595387904205801 ], [ 17.251059509587964, 49.595388904205791 ], [ 17.251168609588042, 49.595389104205758 ], [ 17.251222109588088, 49.595389004205707 ], [ 17.251271509588115, 49.595388204205733 ], [ 17.251318309588147, 49.595386804205695 ], [ 17.251351209588172, 49.595385304205706 ], [ 17.251378709588195, 49.595384004205698 ], [ 17.251406709588206, 49.595382104205733 ], [ 17.251437409588242, 49.595379204205628 ], [ 17.251473309588263, 49.595376704205734 ], [ 17.251505809588288, 49.595375204205638 ], [ 17.251527109588295, 49.595374704205689 ], [ 17.25155260958832, 49.595375204205631 ], [ 17.251581409588336, 49.595377304205684 ], [ 17.25161070958837, 49.59538100420567 ], [ 17.251639409588371, 49.595386204205674 ], [ 17.251666509588393, 49.595391504205651 ], [ 17.251690809588421, 49.5953975042056 ], [ 17.251715209588433, 49.595403704205658 ], [ 17.251738409588448, 49.595410804205613 ], [ 17.251757909588459, 49.59541830420568 ], [ 17.251779409588476, 49.595428204205689 ], [ 17.251822909588515, 49.595450704205625 ], [ 17.251867409588531, 49.595473204205661 ] ] } },
{ "type": "Feature", "properties": { "legend": "chodník" }, "geometry": { "type": "LineString", "coordinates": [ [ 17.251867409588531, 49.595473204205661 ], [ 17.251890909588553, 49.595484804205633 ], [ 17.25191610958856, 49.595494904205708 ], [ 17.251941809588587, 49.595504704205695 ], [ 17.251962509588601, 49.595511204205629 ], [ 17.251991609588618, 49.595519404205646 ], [ 17.252021909588628, 49.595525204205686 ], [ 17.252049809588662, 49.595528604205633 ], [ 17.252080809588687, 49.595531104205655 ], [ 17.252125109588704, 49.595534604205717 ], [ 17.252171309588732, 49.595536604205684 ], [ 17.252250309588792, 49.59553840420562 ], [ 17.252331409588855, 49.595540204205619 ], [ 17.25241120958891, 49.595542104205691 ], [ 17.252622209589056, 49.595545604205611 ], [ 17.252723309589122, 49.595548004205604 ], [ 17.252824309589208, 49.595549404205528 ], [ 17.252928009589265, 49.595551304205571 ], [ 17.253000209589327, 49.595552204205489 ], [ 17.253067109589374, 49.595553304205481 ], [ 17.253146309589429, 49.595555704205502 ], [ 17.253211009589474, 49.595558504205442 ], [ 17.253246409589497, 49.595559704205449 ], [ 17.253283809589512, 49.595559904205459 ], [ 17.253333409589544, 49.59555960420542 ], [ 17.253412609589603, 49.595558104205459 ], [ 17.253457309589646, 49.595555804205432 ], [ 17.253499609589674, 49.595552904205384 ], [ 17.25353610958971, 49.595550204205388 ], [ 17.253568009589728, 49.595547204205396 ], [ 17.253605809589747, 49.595543104205383 ], [ 17.253647609589791, 49.595537304205287 ], [ 17.253691409589816, 49.595530804205374 ], [ 17.253722609589833, 49.595525904205331 ] ] } },
{ "type": "Feature", "properties": { "legend": "chodník" }, "geometry": { "type": "LineString", "coordinates": [ [ 17.255727109591216, 49.595834504205143 ], [ 17.255906009591346, 49.595877904205139 ], [ 17.255942009591365, 49.595886604205219 ] ] } },
{ "type": "Feature", "properties": { "legend": "chodník" }, "geometry": { "type": "LineString", "coordinates": [ [ 17.255495809591068, 49.595777104205219 ], [ 17.255027709590745, 49.595660604205143 ], [ 17.254504009590391, 49.595525504205142 ] ] } },
{ "type": "Feature", "properties": { "legend": "chodník" }, "geometry": { "type": "LineString", "coordinates": [ [ 17.254033109590058, 49.595481304205244 ], [ 17.254061809590073, 49.595480404205261 ], [ 17.254096009590107, 49.595479404205214 ], [ 17.254111309590119, 49.595479504205215 ], [ 17.254125209590104, 49.595479504205272 ], [ 17.254154809590148, 49.595480404205176 ], [ 17.254186409590154, 49.595482104205217 ], [ 17.254218809590174, 49.59548440420523 ], [ 17.254254809590211, 49.595488004205244 ], [ 17.254286409590229, 49.595491604205186 ], [ 17.254322609590254, 49.595496104205182 ], [ 17.254361709590281, 49.595501704205212 ], [ 17.254414309590324, 49.595510204205198 ], [ 17.254504009590391, 49.595525504205142 ] ] } },
{ "type": "Feature", "properties": { "legend": "chodník" }, "geometry": { "type": "LineString", "coordinates": [ [ 17.253722609589833, 49.595525904205331 ], [ 17.253775109589867, 49.595516904205319 ], [ 17.253817909589898, 49.595508704205308 ], [ 17.253858409589931, 49.595501304205307 ], [ 17.253899709589959, 49.595494504205327 ], [ 17.253934109589974, 49.595490304205335 ], [ 17.253973009590013, 49.595485604205244 ], [ 17.254009509590041, 49.595482404205271 ], [ 17.254033109590058, 49.595481304205244 ] ] } },
{ "type": "Feature", "properties": { "legend": "chodník" }, "geometry": { "type": "LineString", "coordinates": [ [ 17.25338660958975, 49.59324720420382 ], [ 17.253314609589697, 49.593204404203831 ], [ 17.25295060958948, 49.592771404203582 ], [ 17.252656109589282, 49.592541304203422 ], [ 17.252636909589278, 49.592525804203447 ], [ 17.252610009589269, 49.592504104203471 ], [ 17.252577809589237, 49.592478204203474 ] ] } },
{ "type": "Feature", "properties": { "legend": "chodník" }, "geometry": { "type": "LineString", "coordinates": [ [ 17.247602009585556, 49.595191604206313 ], [ 17.247591409585549, 49.595187704206303 ], [ 17.247569509585521, 49.595176804206311 ], [ 17.247553309585506, 49.595160804206309 ], [ 17.247544309585514, 49.595142704206275 ], [ 17.2475407095855, 49.59512430420628 ], [ 17.247537109585512, 49.595103204206239 ], [ 17.247538609585522, 49.594951404206178 ], [ 17.247539109585542, 49.594806104206043 ] ] } },
{ "type": "Feature", "properties": { "legend": "chodník" }, "geometry": { "type": "LineString", "coordinates": [ [ 17.257482209592428, 49.596248904205119 ], [ 17.257419909592375, 49.596233204205113 ], [ 17.257231909592257, 49.596186904205112 ], [ 17.256947409592069, 49.596119504205099 ], [ 17.256811809591962, 49.596086504205125 ], [ 17.256610609591835, 49.596042704205104 ] ] } },
{ "type": "Feature", "properties": { "legend": "chodník" }, "geometry": { "type": "LineString", "coordinates": [ [ 17.242065609582625, 49.581193504197607 ], [ 17.242124009582653, 49.581253104197678 ], [ 17.242145609582664, 49.581271204197634 ], [ 17.242192309582709, 49.581276504197596 ], [ 17.242559109582963, 49.581267204197516 ], [ 17.24294460958324, 49.581257404197416 ], [ 17.243266209583464, 49.581249504197409 ], [ 17.24339360958356, 49.58124590419736 ], [ 17.243457509583592, 49.581237904197337 ], [ 17.243846009583866, 49.581224004197239 ], [ 17.244258609584158, 49.581214804197153 ], [ 17.244385809584248, 49.58121120419711 ], [ 17.244687709584458, 49.581203604197107 ], [ 17.245442409584996, 49.581183404196942 ], [ 17.245829309585286, 49.581173204196823 ], [ 17.246201209585543, 49.581161104196696 ], [ 17.246322409585627, 49.58115770419667 ] ] } },
{ "type": "Feature", "properties": { "legend": "chodník" }, "geometry": { "type": "LineString", "coordinates": [ [ 17.255004209590986, 49.591866004202529 ], [ 17.254927509590892, 49.592409604202928 ], [ 17.254888809590867, 49.592545304203036 ], [ 17.254866809590844, 49.592578104203085 ], [ 17.254850909590832, 49.592601704203084 ], [ 17.254762409590761, 49.59265590420307 ] ] } },
{ "type": "Feature", "properties": { "legend": "chodník" }, "geometry": { "type": "LineString", "coordinates": [ [ 17.254174709590245, 49.594033304204196 ], [ 17.254299109590349, 49.594008904204131 ], [ 17.254500409590488, 49.593969004204112 ], [ 17.25486850959075, 49.593906004204037 ] ] } },
{ "type": "Feature", "properties": { "legend": "chodník" }, "geometry": { "type": "LineString", "coordinates": [ [ 17.251191009588265, 49.592378404203643 ], [ 17.251204209588277, 49.592382004203692 ], [ 17.251493009588469, 49.592460304203662 ], [ 17.251654209588587, 49.592503504203655 ] ] } },
{ "type": "Feature", "properties": { "legend": "chodník" }, "geometry": { "type": "LineString", "coordinates": [ [ 17.253610409589864, 49.593968904204274 ], [ 17.253288009589639, 49.594005404204339 ], [ 17.253012509589436, 49.594068504204479 ], [ 17.252951209589398, 49.594082504204501 ] ] } },
{ "type": "Feature", "properties": { "legend": "chodník" }, "geometry": { "type": "LineString", "coordinates": [ [ 17.252951209589398, 49.594082504204501 ], [ 17.252918409589373, 49.594084504204446 ], [ 17.252870409589327, 49.594090204204505 ], [ 17.25282570958931, 49.594101804204499 ], [ 17.252759709589242, 49.59411970420453 ], [ 17.252715609589213, 49.594141104204589 ], [ 17.252692509589195, 49.594152304204599 ] ] } },
{ "type": "Feature", "properties": { "legend": "chodník" }, "geometry": { "type": "LineString", "coordinates": [ [ 17.255186109591197, 49.590777104201734 ], [ 17.255150009591162, 49.590775104201775 ], [ 17.255087009591112, 49.590780304201786 ], [ 17.255041509591088, 49.590790804201824 ], [ 17.254844809590942, 49.590865804201897 ], [ 17.25474910959089, 49.590902404201898 ], [ 17.254684809590827, 49.590926704201934 ], [ 17.254670709590808, 49.590934204201986 ], [ 17.254664109590813, 49.590942904201974 ], [ 17.254662809590808, 49.590954304202008 ], [ 17.254667209590806, 49.590963804201955 ], [ 17.254685709590834, 49.59097540420197 ] ] } },
{ "type": "Feature", "properties": { "legend": "chodník" }, "geometry": { "type": "LineString", "coordinates": [ [ 17.255186109591197, 49.590777104201734 ], [ 17.25521610959121, 49.590792904201727 ], [ 17.255238109591222, 49.590815004201779 ], [ 17.255248709591243, 49.590837004201781 ], [ 17.255250909591229, 49.590858404201754 ], [ 17.25521680959119, 49.591016204201907 ], [ 17.255207309591185, 49.591036504201902 ], [ 17.255187009591182, 49.591052404201889 ], [ 17.255162709591151, 49.591059504201965 ], [ 17.255136709591138, 49.591062904201983 ], [ 17.255100209591113, 49.591060504201927 ], [ 17.255055809591084, 49.591054404201977 ], [ 17.254685709590834, 49.59097540420197 ] ] } },
{ "type": "Feature", "properties": { "legend": "chodník" }, "geometry": { "type": "LineString", "coordinates": [ [ 17.25383520959025, 49.590834704201988 ], [ 17.253772409590184, 49.590898204202077 ] ] } },
{ "type": "Feature", "properties": { "legend": "chodník" }, "geometry": { "type": "LineString", "coordinates": [ [ 17.252514009589341, 49.590418904201982 ], [ 17.252632709589417, 49.59052150420208 ], [ 17.25272780958948, 49.590597504202123 ], [ 17.252812109589538, 49.590656504202101 ], [ 17.252849009589553, 49.590680004202106 ], [ 17.252884409589576, 49.59069650420215 ] ] } },
{ "type": "Feature", "properties": { "legend": "chodník" }, "geometry": { "type": "LineString", "coordinates": [ [ 17.251901909588849, 49.591249104202724 ], [ 17.251996109588912, 49.591380304202794 ], [ 17.252204009589043, 49.591629604202936 ], [ 17.252448309589195, 49.591868404203048 ], [ 17.252475409589206, 49.591891604203099 ], [ 17.252493009589223, 49.591907504203029 ], [ 17.252509209589228, 49.591917304203072 ], [ 17.252546909589249, 49.591940204203077 ], [ 17.252598809589273, 49.591967704203121 ], [ 17.252673609589344, 49.592005104203082 ] ] } },
{ "type": "Feature", "properties": { "legend": "chodník" }, "geometry": { "type": "LineString", "coordinates": [ [ 17.251799009588563, 49.594302104204878 ], [ 17.251745209588517, 49.594315404204849 ], [ 17.251680609588472, 49.59432180420491 ], [ 17.251609409588433, 49.594324004204893 ], [ 17.251252309588185, 49.594302704204928 ], [ 17.251024409588023, 49.594281204204997 ], [ 17.250863809587901, 49.594258904205006 ], [ 17.250497809587657, 49.594202804205068 ], [ 17.250418109587592, 49.594187804205092 ], [ 17.250351909587561, 49.594172304205124 ], [ 17.250288809587506, 49.594154204205019 ] ] } },
{ "type": "Feature", "properties": { "legend": "chodník" }, "geometry": { "type": "LineString", "coordinates": [ [ 17.25100490958809, 49.593178504204232 ], [ 17.251047809588112, 49.593180504204277 ], [ 17.251103509588155, 49.593193504204237 ], [ 17.251158109588189, 49.593218004204267 ], [ 17.251654309588524, 49.59347470420434 ] ] } },
{ "type": "Feature", "properties": { "legend": "chodník" }, "geometry": { "type": "LineString", "coordinates": [ [ 17.251867409588531, 49.595473204205661 ], [ 17.25186910958854, 49.595457204205609 ], [ 17.251868309588531, 49.595398504205576 ], [ 17.251868109588532, 49.595384504205562 ], [ 17.251865709588564, 49.595217404205428 ], [ 17.251865609588545, 49.595205504205481 ], [ 17.251864809588564, 49.595118704205447 ], [ 17.251856409588566, 49.595005504205361 ], [ 17.251843509588561, 49.594876204205249 ], [ 17.251839709588577, 49.59459200420509 ], [ 17.251838009588582, 49.594465604204998 ], [ 17.251837509588576, 49.594425804204995 ], [ 17.251835209588577, 49.594410404204851 ], [ 17.251829009588587, 49.59437000420489 ], [ 17.251799009588563, 49.594302104204878 ] ] } },
{ "type": "Feature", "properties": { "legend": "chodník" }, "geometry": { "type": "LineString", "coordinates": [ [ 17.252577809589237, 49.592478204203474 ], [ 17.25255540958922, 49.592475704203444 ], [ 17.25253440958922, 49.592467804203459 ], [ 17.252399409589117, 49.592388704203444 ], [ 17.252385009589112, 49.592373904203377 ], [ 17.252378709589113, 49.592359204203341 ], [ 17.252378809589107, 49.59234200420336 ], [ 17.252383009589114, 49.592324804203379 ], [ 17.25239420958912, 49.592303704203445 ], [ 17.252514609589216, 49.592167604203219 ], [ 17.252673609589344, 49.592005104203082 ], [ 17.252969609589567, 49.591740604202855 ], [ 17.253092309589661, 49.591631004202739 ], [ 17.253139909589699, 49.591588504202711 ], [ 17.253256709589795, 49.591488604202567 ], [ 17.2532787095898, 49.591478904202575 ], [ 17.253300309589815, 49.5914774042026 ], [ 17.253325209589839, 49.591479804202642 ], [ 17.253350809589854, 49.591492504202549 ], [ 17.253796409590134, 49.591822704202755 ], [ 17.253806709590137, 49.591835204202788 ], [ 17.253809209590152, 49.59185060420274 ] ] } },
{ "type": "Feature", "properties": { "legend": "chodník" }, "geometry": { "type": "LineString", "coordinates": [ [ 17.252036609588835, 49.592920804203928 ], [ 17.252072509588853, 49.592847304203794 ], [ 17.252178809588951, 49.592628904203615 ], [ 17.252233509589001, 49.592513604203468 ], [ 17.252261209589012, 49.592465504203474 ], [ 17.252295309589041, 49.592421004203473 ], [ 17.252318509589056, 49.592397004203463 ], [ 17.252348209589091, 49.592374904203353 ], [ 17.252378709589113, 49.592359204203341 ] ] } },
{ "type": "Feature", "properties": { "legend": "chodník" }, "geometry": { "type": "LineString", "coordinates": [ [ 17.251654309588524, 49.59347470420434 ], [ 17.25167570958854, 49.593487904204274 ], [ 17.252090809588807, 49.593752704204462 ], [ 17.252105209588823, 49.593767504204422 ], [ 17.252120509588813, 49.593786704204419 ], [ 17.252127809588835, 49.593811504204488 ] ] } },
{ "type": "Feature", "properties": { "legend": "chodník" }, "geometry": { "type": "LineString", "coordinates": [ [ 17.256610609591835, 49.596042704205104 ], [ 17.256301509591623, 49.59597140420513 ], [ 17.256090409591472, 49.595922304205175 ], [ 17.255942009591365, 49.595886604205219 ] ] } },
{ "type": "Feature", "properties": { "legend": "chodník" }, "geometry": { "type": "LineString", "coordinates": [ [ 17.255713709591209, 49.595794604205153 ], [ 17.255563709591115, 49.595648904205099 ], [ 17.255535509591105, 49.595621604205057 ], [ 17.255416509591026, 49.595448904204943 ], [ 17.255201309590905, 49.595028504204748 ], [ 17.255114509590864, 49.594879304204611 ] ] } },
{ "type": "Feature", "properties": { "legend": "chodník" }, "geometry": { "type": "LineString", "coordinates": [ [ 17.253809209590152, 49.59185060420274 ], [ 17.253803409590155, 49.591863504202713 ], [ 17.253792609590128, 49.591875304202745 ], [ 17.253772009590119, 49.591887504202788 ], [ 17.25280660958941, 49.592351004203287 ], [ 17.25262560958928, 49.592465704203399 ], [ 17.252601009589256, 49.592475504203392 ], [ 17.252577809589237, 49.592478204203474 ] ] } },
{ "type": "Feature", "properties": { "legend": "chodník" }, "geometry": { "type": "LineString", "coordinates": [ [ 17.253300309589815, 49.5914774042026 ], [ 17.253304509589825, 49.591458304202618 ], [ 17.253313009589824, 49.591432704202546 ], [ 17.253327109589851, 49.591405404202575 ], [ 17.253342509589849, 49.591380204202522 ], [ 17.253353309589865, 49.591368304202469 ], [ 17.25336470958986, 49.591355804202529 ], [ 17.253491509589974, 49.591224804202383 ], [ 17.253588709590051, 49.591116804202258 ], [ 17.253664809590099, 49.591028704202273 ], [ 17.253772409590184, 49.590898204202077 ] ] } },
{ "type": "Feature", "properties": { "legend": "chodník" }, "geometry": { "type": "LineString", "coordinates": [ [ 17.252127809588835, 49.593811504204488 ], [ 17.252122609588813, 49.593842204204456 ], [ 17.252102709588808, 49.593870704204477 ], [ 17.252064009588786, 49.593908004204501 ], [ 17.252029409588754, 49.593958404204592 ], [ 17.25199580958872, 49.594014704204639 ], [ 17.251880909588621, 49.59423420420481 ], [ 17.251861009588602, 49.594262204204867 ], [ 17.251838109588597, 49.594283604204875 ], [ 17.251799009588563, 49.594302104204878 ] ] } },
{ "type": "Feature", "properties": { "legend": "chodník" }, "geometry": { "type": "LineString", "coordinates": [ [ 17.252036609588835, 49.592920804203928 ], [ 17.252091809588876, 49.592897504203805 ], [ 17.252134709588905, 49.592871304203776 ], [ 17.252332509589056, 49.592682904203592 ], [ 17.25246940958915, 49.592566504203518 ], [ 17.252505409589187, 49.592537204203502 ], [ 17.252550509589213, 49.592500504203507 ], [ 17.252577809589237, 49.592478204203474 ] ] } },
{ "type": "Feature", "properties": { "legend": "chodník" }, "geometry": { "type": "LineString", "coordinates": [ [ 17.250061209587489, 49.592082904203679 ], [ 17.250132909587542, 49.592118404203703 ], [ 17.250243409587618, 49.592208604203684 ], [ 17.250340909587692, 49.59230440420378 ], [ 17.250412709587721, 49.592378304203848 ], [ 17.250454809587751, 49.592422104203806 ], [ 17.25066490958789, 49.592656504203923 ], [ 17.250919009588038, 49.592981604204084 ], [ 17.250940209588052, 49.593008804204118 ] ] } },
{ "type": "Feature", "properties": { "legend": "chodník" }, "geometry": { "type": "LineString", "coordinates": [ [ 17.253422409589948, 49.590743204202049 ], [ 17.253332409589905, 49.590705504201999 ], [ 17.25325260958984, 49.590676404202071 ], [ 17.253167309589784, 49.59065780420201 ], [ 17.253107709589745, 49.59065150420205 ], [ 17.253034809589682, 49.590652904202123 ], [ 17.252967209589631, 49.590664204202128 ], [ 17.252884409589576, 49.59069650420215 ] ] } },
{ "type": "Feature", "properties": { "legend": "chodník" }, "geometry": { "type": "LineString", "coordinates": [ [ 17.254596209590506, 49.594728304204637 ], [ 17.254474809590434, 49.59453200420451 ], [ 17.254393809590379, 49.594401204204466 ], [ 17.254174709590245, 49.594033304204196 ] ] } },
{ "type": "Feature", "properties": { "legend": "chodník" }, "geometry": { "type": "LineString", "coordinates": [ [ 17.249947609587213, 49.595065304205768 ], [ 17.249849909587144, 49.595053104205746 ] ] } },
{ "type": "Feature", "properties": { "legend": "chodník" }, "geometry": { "type": "LineString", "coordinates": [ [ 17.250940209588052, 49.593008804204118 ], [ 17.250978909588081, 49.593072104204126 ], [ 17.251000509588096, 49.5931283042042 ], [ 17.25100490958809, 49.593178504204232 ] ] } },
{ "type": "Feature", "properties": { "legend": "chodník" }, "geometry": { "type": "LineString", "coordinates": [ [ 17.251686109588682, 49.591561004202958 ], [ 17.251805109588759, 49.591479604202931 ], [ 17.251923109588855, 49.591415004202794 ], [ 17.251929609588871, 49.591411404202844 ], [ 17.251951709588877, 49.591399304202767 ], [ 17.251996109588912, 49.591380304202794 ] ] } },
{ "type": "Feature", "properties": { "legend": "chodník" }, "geometry": { "type": "LineString", "coordinates": [ [ 17.250288809587506, 49.594154204205019 ], [ 17.250218509587466, 49.594118004205079 ], [ 17.250186109587442, 49.594098404205006 ], [ 17.250148809587415, 49.594063904204994 ], [ 17.250127609587413, 49.594031204205052 ] ] } },
{ "type": "Feature", "properties": { "legend": "chodník" }, "geometry": { "type": "LineString", "coordinates": [ [ 17.267753809599775, 49.594359804201801 ], [ 17.26760850959964, 49.594917604202202 ], [ 17.267464309599497, 49.595615204202687 ] ] } },
{ "type": "Feature", "properties": { "legend": "chodník" }, "geometry": { "type": "LineString", "coordinates": [ [ 17.267464309599497, 49.595615204202687 ], [ 17.267406909599416, 49.595995704203055 ], [ 17.26735860959937, 49.596362904203325 ], [ 17.267342609599329, 49.596487604203389 ], [ 17.267330809599322, 49.59670710420351 ], [ 17.267323109599296, 49.596914804203664 ], [ 17.267321909599275, 49.597082804203765 ], [ 17.267323809599279, 49.59711360420382 ], [ 17.26734940959928, 49.597365304204047 ], [ 17.267350709599267, 49.597382804204017 ], [ 17.267347309599288, 49.597405604203985 ], [ 17.267341609599281, 49.597424304204011 ] ] } },
{ "type": "Feature", "properties": { "legend": "chodník" }, "geometry": { "type": "LineString", "coordinates": [ [ 17.267753809599775, 49.594359804201801 ], [ 17.267779209599798, 49.594261204201715 ] ] } },
{ "type": "Feature", "properties": { "legend": "chodník" }, "geometry": { "type": "LineString", "coordinates": [ [ 17.230314409573392, 49.594857904209455 ], [ 17.231076209573928, 49.594946104209392 ], [ 17.231176709573997, 49.594955504209324 ] ] } },
{ "type": "Feature", "properties": { "legend": "chodník" }, "geometry": { "type": "LineString", "coordinates": [ [ 17.251855509588498, 49.595792804205907 ], [ 17.251864109588524, 49.595567504205725 ], [ 17.25186670958853, 49.5954936042057 ], [ 17.251867409588531, 49.595473204205661 ] ] } },
{ "type": "Feature", "properties": { "legend": "chodník" }, "geometry": { "type": "LineString", "coordinates": [ [ 17.266816809598854, 49.598206804204658 ], [ 17.266739109598781, 49.598242304204774 ], [ 17.266661309598735, 49.598285404204717 ] ] } },
{ "type": "Feature", "properties": { "legend": "chodník" }, "geometry": { "type": "LineString", "coordinates": [ [ 17.251035409587992, 49.594911304205432 ], [ 17.250899809587882, 49.594942204205488 ], [ 17.250838309587849, 49.594964104205523 ], [ 17.250782809587811, 49.594990704205507 ], [ 17.250747909587773, 49.595011004205581 ], [ 17.250705709587749, 49.595039904205613 ], [ 17.250667809587704, 49.595071504205613 ] ] } },
{ "type": "Feature", "properties": { "legend": "chodník" }, "geometry": { "type": "LineString", "coordinates": [ [ 17.261142309594906, 49.59748800420531 ], [ 17.261084309594867, 49.597494904205348 ], [ 17.261074509594859, 49.59749610420532 ], [ 17.26103390959484, 49.597497904205305 ], [ 17.261000409594804, 49.597532204205393 ], [ 17.261007709594818, 49.597555004205347 ], [ 17.260669409594573, 49.597605004205398 ], [ 17.260651009594561, 49.597611304205415 ], [ 17.260674309594574, 49.59762800420549 ], [ 17.260754009594624, 49.597685204205455 ], [ 17.26074460959461, 49.597734404205482 ], [ 17.260729109594607, 49.597749304205479 ], [ 17.260733209594594, 49.597752404205565 ], [ 17.260737209594609, 49.59775710420552 ], [ 17.260739209594615, 49.597761104205524 ], [ 17.260736409594617, 49.597769204205491 ], [ 17.26094990959476, 49.597797104205497 ], [ 17.260949209594749, 49.597798204205525 ], [ 17.261131609594869, 49.597875604205541 ], [ 17.261132709594882, 49.597874404205527 ], [ 17.261134209594882, 49.597875104205535 ], [ 17.261158109594898, 49.597885304205555 ], [ 17.26117490959491, 49.597892504205518 ], [ 17.261239109594968, 49.597920104205514 ], [ 17.261344909595024, 49.597965604205534 ], [ 17.261353209595036, 49.597959104205614 ], [ 17.261365109595037, 49.597952204205519 ], [ 17.261374009595045, 49.597947704205595 ], [ 17.261383709595052, 49.597943804205549 ], [ 17.261395509595054, 49.59794010420557 ], [ 17.261410609595078, 49.597936204205496 ], [ 17.261423709595078, 49.597934504205568 ] ] } },
{ "type": "Feature", "properties": { "legend": "chodník" }, "geometry": { "type": "LineString", "coordinates": [ [ 17.267234709599187, 49.597651504204144 ], [ 17.26716450959913, 49.597779604204312 ], [ 17.266993809598983, 49.598073104204566 ], [ 17.266960509598967, 49.598120704204611 ], [ 17.266930909598941, 49.598148304204564 ], [ 17.266901609598907, 49.598167904204672 ], [ 17.266870809598888, 49.59818350420462 ], [ 17.266816809598854, 49.598206804204658 ] ] } },
{ "type": "Feature", "properties": { "legend": "chodník" }, "geometry": { "type": "LineString", "coordinates": [ [ 17.253310909589796, 49.591840204202889 ], [ 17.253265609589771, 49.591821904202817 ], [ 17.253260209589769, 49.591809104202859 ], [ 17.253287109589792, 49.591779604202806 ], [ 17.253313009589807, 49.591775404202806 ], [ 17.25335570958983, 49.591792104202817 ], [ 17.253360409589845, 49.591808804202799 ], [ 17.253335509589814, 49.591836804202806 ], [ 17.253310909589796, 49.591840204202889 ] ] } },
{ "type": "Feature", "properties": { "legend": "chodník" }, "geometry": { "type": "LineString", "coordinates": [ [ 17.252334409589061, 49.592520704203515 ], [ 17.252337409589057, 49.592532404203546 ], [ 17.252333409589063, 49.592537404203547 ], [ 17.252369309589092, 49.592549604203533 ], [ 17.25237250958908, 49.592545504203557 ], [ 17.252393209589108, 49.592541904203522 ], [ 17.252400209589112, 49.592544504203481 ], [ 17.252420509589125, 49.592522104203482 ], [ 17.252412609589111, 49.592519104203554 ], [ 17.25240760958911, 49.592506704203515 ], [ 17.252411609589132, 49.592502104203476 ], [ 17.252378009589091, 49.592490104203492 ], [ 17.252373909589075, 49.592494904203562 ], [ 17.252352109589083, 49.592496804203499 ], [ 17.252346709589069, 49.592494704203538 ], [ 17.252325709589073, 49.592517304203469 ], [ 17.252334409589061, 49.592520704203515 ] ] } },
{ "type": "Feature", "properties": { "legend": "chodník" }, "geometry": { "type": "LineString", "coordinates": [ [ 17.267341609599281, 49.597424304204011 ], [ 17.267234709599187, 49.597651504204144 ] ] } },
{ "type": "Feature", "properties": { "legend": "chodník" }, "geometry": { "type": "LineString", "coordinates": [ [ 17.250288809587506, 49.594154204205019 ], [ 17.250227409587467, 49.594258804205104 ], [ 17.250214109587453, 49.594281104205166 ], [ 17.250127509587376, 49.594426104205326 ], [ 17.250028709587301, 49.594611304205436 ], [ 17.250014009587293, 49.594646204205461 ], [ 17.250003509587277, 49.594671304205498 ] ] } },
{ "type": "Feature", "properties": { "legend": "chodník" }, "geometry": { "type": "LineString", "coordinates": [ [ 17.247541209585567, 49.594482404205827 ], [ 17.247541109585548, 49.594476404205814 ], [ 17.247540109585554, 49.59443800420577 ], [ 17.247541409585558, 49.5943998042058 ], [ 17.247546709585571, 49.594364104205695 ], [ 17.247559509585578, 49.594318204205727 ], [ 17.247578909585599, 49.594265804205662 ] ] } },
{ "type": "Feature", "properties": { "legend": "chodník" }, "geometry": { "type": "LineString", "coordinates": [ [ 17.25383700958993, 49.595334504205184 ], [ 17.253882709589963, 49.595358404205193 ], [ 17.253980309590009, 49.595413504205197 ], [ 17.254000809590032, 49.595428904205242 ], [ 17.254011309590044, 49.595441504205297 ], [ 17.254017809590042, 49.595449404205262 ], [ 17.254024009590054, 49.595459404205229 ], [ 17.254029509590055, 49.59546830420522 ], [ 17.254033109590058, 49.595481304205244 ] ] } },
{ "type": "Feature", "properties": { "legend": "chodník" }, "geometry": { "type": "LineString", "coordinates": [ [ 17.254504009590391, 49.595525504205142 ], [ 17.25450570959039, 49.595513404205185 ], [ 17.254503209590393, 49.595505004205201 ], [ 17.254501909590388, 49.595500704205165 ], [ 17.254495609590382, 49.595490404205187 ], [ 17.254478909590368, 49.595475904205145 ], [ 17.25446360959036, 49.595464004205176 ], [ 17.254365609590291, 49.595388004205113 ], [ 17.254331809590273, 49.595361704205168 ] ] } },
{ "type": "Feature", "properties": { "legend": "chodník" }, "geometry": { "type": "LineString", "coordinates": [ [ 17.255321109591293, 49.590699904201692 ], [ 17.255238209591226, 49.590731604201679 ], [ 17.255204609591214, 49.59075430420171 ], [ 17.255186109591197, 49.590777104201734 ] ] } },
{ "type": "Feature", "properties": { "legend": "chodník" }, "geometry": { "type": "LineString", "coordinates": [ [ 17.250127609587413, 49.594031204205052 ], [ 17.250125709587419, 49.594016004204938 ], [ 17.2501217095874, 49.593984004204962 ], [ 17.250137209587411, 49.593936804204986 ], [ 17.250162109587443, 49.593905504204898 ] ] } },
{ "type": "Feature", "properties": { "legend": "chodník" }, "geometry": { "type": "LineString", "coordinates": [ [ 17.247539109585542, 49.594806104206043 ], [ 17.247540409585543, 49.594669104205877 ], [ 17.247541809585556, 49.594516104205816 ], [ 17.247541209585567, 49.594482404205827 ] ] } },
{ "type": "Feature", "properties": { "legend": "chodník" }, "geometry": { "type": "LineString", "coordinates": [ [ 17.253772409590184, 49.590898204202077 ], [ 17.253744109590166, 49.590886204202121 ], [ 17.253736209590169, 49.590882904202061 ], [ 17.253719109590154, 49.590875704202119 ], [ 17.253706809590145, 49.590870204202119 ] ] } },
{ "type": "Feature", "properties": { "legend": "chodník" }, "geometry": { "type": "LineString", "coordinates": [ [ 17.25002880958748, 49.592064804203581 ], [ 17.250061209587489, 49.592082904203679 ] ] } },
{ "type": "Feature", "properties": { "legend": "chodník" }, "geometry": { "type": "LineString", "coordinates": [ [ 17.252692509589195, 49.594152304204599 ], [ 17.252557809589113, 49.594033204204592 ], [ 17.252536109589112, 49.594014104204504 ] ] } },
{ "type": "Feature", "properties": { "legend": "chodník" }, "geometry": { "type": "LineString", "coordinates": [ [ 17.255727109591216, 49.595834504205143 ], [ 17.255495809591068, 49.595777104205219 ] ] } }
]
}
