{
"type": "FeatureCollection",
"name": "leisure_park_Olomouc",
"crs": { "type": "name", "properties": { "name": "urn:ogc:def:crs:OGC:1.3:CRS84" } },
"features": [
{ "type": "Feature", "properties": { "name": "Park Na Střelnici", "legend": "park" }, "geometry": { "type": "Polygon", "coordinates": [ [ [ 17.251116009587783, 49.598759104208135 ], [ 17.251003409587675, 49.599032304208372 ], [ 17.250997709587661, 49.599139004208382 ], [ 17.250452009587232, 49.599825704208989 ], [ 17.250296109587111, 49.599994104209152 ], [ 17.250209009587056, 49.600061904209205 ], [ 17.250007409586889, 49.600218704209411 ], [ 17.249886109586807, 49.600138204209372 ], [ 17.249897609586831, 49.599975404209268 ], [ 17.250108609587006, 49.599625504208923 ], [ 17.249969309586913, 49.599551104208892 ], [ 17.249752709586751, 49.599669504208997 ], [ 17.249507409586574, 49.599711804209058 ], [ 17.249436509586534, 49.59954380420902 ], [ 17.249301409586462, 49.599223404208828 ], [ 17.248877909586156, 49.599298304208958 ], [ 17.248876609586162, 49.599221204208845 ], [ 17.248875609586172, 49.599158404208829 ], [ 17.248943009586238, 49.598884504208655 ], [ 17.249034909586324, 49.598640004208441 ], [ 17.249073009586347, 49.59861850420841 ], [ 17.251116009587783, 49.598759104208135 ] ], [ [ 17.250517109587317, 49.59929490420862 ], [ 17.250556109587354, 49.599131704208489 ], [ 17.250343109587206, 49.599110304208502 ], [ 17.250304109587166, 49.599273504208654 ], [ 17.250517109587317, 49.59929490420862 ] ] ] } },
{ "type": "Feature", "properties": { "name": "Smetanovy sady", "legend": "park" }, "geometry": { "type": "Polygon", "coordinates": [ [ [ 17.244908209584089, 49.58896320420245 ], [ 17.244926809584108, 49.588937904202453 ], [ 17.245401409584453, 49.588709104202202 ], [ 17.245452709584498, 49.588684604202129 ], [ 17.246120109584975, 49.588350004201814 ], [ 17.245946909584866, 49.588194304201728 ], [ 17.245942609584862, 49.588180004201753 ], [ 17.245946209584865, 49.588165304201738 ], [ 17.245958109584873, 49.588154404201667 ], [ 17.24623460958508, 49.588019204201544 ], [ 17.246276709585118, 49.587998604201545 ], [ 17.246284009585111, 49.587995004201574 ], [ 17.246612809585358, 49.587860204201391 ], [ 17.247172509585774, 49.587526204201083 ], [ 17.247195409585789, 49.587515704200982 ], [ 17.24762660958611, 49.587318304200764 ], [ 17.247644909586125, 49.587319104200837 ], [ 17.247924609586324, 49.587341004200766 ], [ 17.247965609586348, 49.587377504200767 ], [ 17.248373309586643, 49.58734210420068 ], [ 17.248554109586767, 49.587244604200613 ], [ 17.248727109586898, 49.587151304200411 ], [ 17.248815809586965, 49.587126504200405 ], [ 17.24885110958698, 49.587126604200385 ], [ 17.248869909586993, 49.587127204200435 ], [ 17.248882609587017, 49.587011004200328 ], [ 17.248930009587081, 49.586597304200062 ], [ 17.248938709587101, 49.586509104199948 ], [ 17.248943409587103, 49.58648010419995 ], [ 17.249050209587168, 49.58646970419997 ], [ 17.249145609587238, 49.586460304199917 ], [ 17.249231109587306, 49.586452004199849 ], [ 17.249287709587346, 49.586446504199934 ], [ 17.249344509587374, 49.586440904199819 ], [ 17.249397209587407, 49.586435804199859 ], [ 17.249423509587441, 49.586433204199736 ], [ 17.249460509587468, 49.586429604199751 ], [ 17.249515209587504, 49.586424304199788 ], [ 17.249744409587674, 49.586362204199695 ], [ 17.250225909588028, 49.586217204199436 ], [ 17.250414609588152, 49.586191504199427 ], [ 17.250518509588222, 49.586177604199435 ], [ 17.250548209588263, 49.58592700419927 ], [ 17.25072620958839, 49.585939704199205 ], [ 17.250722109588395, 49.585816104199104 ], [ 17.251775309589139, 49.585765204198879 ], [ 17.252568909589701, 49.585726204198714 ], [ 17.253248509590179, 49.585690104198548 ], [ 17.25339730959028, 49.585681404198525 ], [ 17.253399809590285, 49.585711404198534 ], [ 17.25370840959048, 49.586055604198783 ], [ 17.254203409590843, 49.585957404198567 ], [ 17.25454780959106, 49.586394504198793 ], [ 17.254587309591081, 49.586385004198753 ], [ 17.254681409591125, 49.586548004198917 ], [ 17.25531770959152, 49.58753460419944 ], [ 17.255316109591504, 49.587557204199442 ], [ 17.2552932095915, 49.587578304199475 ], [ 17.255240709591455, 49.587595604199478 ], [ 17.25515460959139, 49.587623304199546 ], [ 17.254741709591091, 49.587773104199677 ], [ 17.254517609590948, 49.587512704199582 ], [ 17.254152209590675, 49.587643404199774 ], [ 17.253045409589877, 49.588039204200221 ], [ 17.253018109589856, 49.588049004200215 ], [ 17.253002409589847, 49.588054604200259 ], [ 17.252893009589766, 49.588094704200287 ], [ 17.252865909589747, 49.588058004200256 ], [ 17.252172209589244, 49.588304304200548 ], [ 17.252234009589298, 49.588377204200576 ], [ 17.251336409588628, 49.588693104201035 ], [ 17.25119220958852, 49.588771504201105 ], [ 17.250710909588172, 49.588937004201327 ], [ 17.250801009588233, 49.589114704201357 ], [ 17.250466809587973, 49.589337904201649 ], [ 17.250446409587955, 49.589324904201689 ], [ 17.250414509587937, 49.589340704201703 ], [ 17.250379909587906, 49.589351004201689 ], [ 17.250339209587874, 49.58935270420163 ], [ 17.250299009587849, 49.589343604201723 ], [ 17.250263609587822, 49.589366804201759 ], [ 17.250247109587818, 49.58935940420168 ], [ 17.250229709587796, 49.589356004201711 ], [ 17.25021580958779, 49.589356404201745 ], [ 17.250201109587785, 49.589359704201719 ], [ 17.250188909587784, 49.589366504201685 ], [ 17.250184509587768, 49.589363804201682 ], [ 17.250171909587763, 49.589372604201721 ], [ 17.250126609587735, 49.589403904201745 ], [ 17.250112909587727, 49.589413404201771 ], [ 17.250117009587715, 49.589415804201735 ], [ 17.250109309587703, 49.589422104201766 ], [ 17.250102309587707, 49.589430404201828 ], [ 17.250098809587701, 49.589441804201826 ], [ 17.250101709587707, 49.58945280420177 ], [ 17.250108709587703, 49.589460704201827 ], [ 17.250117509587714, 49.58946600420181 ], [ 17.250083009587691, 49.589488304201801 ], [ 17.250096509587696, 49.589503504201836 ], [ 17.250100009587705, 49.589522404201794 ], [ 17.250099409587705, 49.58953710420181 ], [ 17.250094709587703, 49.589552304201831 ], [ 17.250080109587692, 49.589568204201861 ], [ 17.250060609587671, 49.589580704201914 ], [ 17.250083709587692, 49.589595204201892 ], [ 17.249721709587408, 49.589833804202193 ], [ 17.249448809587236, 49.589686904202068 ], [ 17.249092809586973, 49.589902104202331 ], [ 17.249080809586943, 49.589908604202357 ], [ 17.248624209586634, 49.589875804202443 ], [ 17.248223909586347, 49.590121804202646 ], [ 17.248262909586348, 49.590317404202828 ], [ 17.247750609585971, 49.590702204203104 ], [ 17.247679009585923, 49.590662504203117 ], [ 17.247632309585878, 49.590641404203105 ], [ 17.247600709585868, 49.590626404203107 ], [ 17.247277409585656, 49.590461904203103 ], [ 17.246860209585364, 49.590226004203025 ], [ 17.246854409585364, 49.59020860420295 ], [ 17.246788509585325, 49.590173504202959 ], [ 17.246765609585307, 49.590175904202958 ], [ 17.246629409585218, 49.590078604202908 ], [ 17.246619709585207, 49.590071404202909 ], [ 17.246587909585198, 49.590051204202936 ], [ 17.246579009585197, 49.590045604202871 ], [ 17.246629709585228, 49.590012704202827 ], [ 17.24656050958518, 49.58995530420281 ], [ 17.24659980958522, 49.589936504202797 ], [ 17.246582509585192, 49.589922804202821 ], [ 17.246630309585235, 49.589899804202773 ], [ 17.246621809585214, 49.58989130420283 ], [ 17.246575909585204, 49.589851104202729 ], [ 17.246521509585158, 49.589807204202756 ], [ 17.246482209585139, 49.589772904202754 ], [ 17.246423109585102, 49.589723604202746 ], [ 17.246322009585018, 49.58977480420274 ], [ 17.246289709584993, 49.589748804202742 ], [ 17.246298109585005, 49.589744204202766 ], [ 17.246277909585011, 49.589727604202757 ], [ 17.246179809584923, 49.58978210420279 ], [ 17.245544609584503, 49.589371604202604 ], [ 17.245298709584329, 49.589218504202627 ], [ 17.245098609584218, 49.58909220420253 ], [ 17.245116909584226, 49.589080504202506 ], [ 17.245075209584193, 49.589054104202496 ], [ 17.245057909584176, 49.58906540420255 ], [ 17.244980309584133, 49.589015804202489 ], [ 17.244908209584089, 49.58896320420245 ] ] ] } },
{ "type": "Feature", "properties": { "name": "Čechovy sady", "legend": "park" }, "geometry": { "type": "Polygon", "coordinates": [ [ [ 17.24573400958441, 49.592649604204887 ], [ 17.245688009584374, 49.592771104204971 ], [ 17.245668809584348, 49.59276840420501 ], [ 17.245573909584277, 49.592998604205157 ], [ 17.245584909584284, 49.593003904205133 ], [ 17.245560609584267, 49.593062104205231 ], [ 17.245555209584253, 49.59307730420521 ], [ 17.245482809584203, 49.593259804205353 ], [ 17.245395809584107, 49.593550004205547 ], [ 17.245330409584025, 49.59383630420583 ], [ 17.245307009584018, 49.593938904205856 ], [ 17.245225909583933, 49.594243104206093 ], [ 17.245190509583921, 49.594375704206186 ], [ 17.244905209583703, 49.594350004206234 ], [ 17.244801709583623, 49.59440530420629 ], [ 17.244789609583624, 49.594410004206317 ], [ 17.244782009583616, 49.594414104206329 ], [ 17.244774109583624, 49.594418804206285 ], [ 17.244768709583607, 49.594424204206334 ], [ 17.244765809583601, 49.594428404206361 ], [ 17.244762709583597, 49.594433304206326 ], [ 17.244559909583412, 49.595130404206856 ], [ 17.244485109583344, 49.595375904207032 ], [ 17.24446720958333, 49.595385304207007 ], [ 17.244435609583313, 49.595394004207094 ], [ 17.244437709583313, 49.595396904207064 ], [ 17.244410409583285, 49.595404804207085 ], [ 17.244392809583271, 49.595409904207116 ], [ 17.244264809583175, 49.595644204207247 ], [ 17.242368309581867, 49.595197704207358 ], [ 17.242520209581986, 49.595059804207168 ], [ 17.242909309582274, 49.594706604206905 ], [ 17.243183509582487, 49.59445760420671 ], [ 17.243174809582499, 49.594454004206597 ], [ 17.243117009582452, 49.594422904206631 ], [ 17.243012609582372, 49.594391504206669 ], [ 17.24286580958227, 49.594315104206608 ], [ 17.243324909582618, 49.594104504206392 ], [ 17.243713209582896, 49.593890304206077 ], [ 17.24384130958299, 49.59375240420605 ], [ 17.243922109583075, 49.593585304205902 ], [ 17.244057909583198, 49.593063104205513 ], [ 17.244125809583288, 49.592587804205181 ], [ 17.244173309583338, 49.592094204204855 ], [ 17.244205509583391, 49.591857504204597 ], [ 17.244302309583468, 49.591652504204511 ], [ 17.244471609583602, 49.591459304204278 ], [ 17.244924209583957, 49.590952904203881 ], [ 17.245074509584079, 49.590835604203761 ], [ 17.245406109584316, 49.590778404203625 ], [ 17.245477209584354, 49.590824404203644 ], [ 17.245583209584435, 49.590758304203575 ], [ 17.24550820958439, 49.590711604203577 ], [ 17.245823209584625, 49.590512504203403 ], [ 17.245819209584635, 49.590421804203288 ], [ 17.246194309584915, 49.590165604203065 ], [ 17.246283009584975, 49.590158204203014 ], [ 17.246549209585144, 49.59031330420315 ], [ 17.24687380958536, 49.590482604203167 ], [ 17.247186509585585, 49.590646204203154 ], [ 17.247617709585857, 49.590875104203256 ], [ 17.247093609585455, 49.591289104203724 ], [ 17.246765409585208, 49.591550904203906 ], [ 17.246347309584905, 49.591881604204232 ], [ 17.245944409584588, 49.592200304204518 ], [ 17.245740409584425, 49.592636004204834 ], [ 17.24573400958441, 49.592649604204887 ] ] ] } },
{ "type": "Feature", "properties": { "name": "Pod Dómem", "legend": "park" }, "geometry": { "type": "Polygon", "coordinates": [ [ [ 17.260770209594554, 49.598889404206354 ], [ 17.25957300959373, 49.598656004206397 ], [ 17.258423009592946, 49.598442004206468 ], [ 17.258565109593054, 49.598128404206257 ], [ 17.25885300959327, 49.598039004206072 ], [ 17.258883009593298, 49.598014004206085 ], [ 17.258920009593318, 49.59795000420602 ], [ 17.258922009593316, 49.597932004206015 ], [ 17.258985009593378, 49.597826904205917 ], [ 17.25903430959341, 49.597752104205917 ], [ 17.260021009594091, 49.598004704205856 ], [ 17.26027600959425, 49.598150004205841 ], [ 17.26027420959425, 49.598275604206009 ], [ 17.260277209594253, 49.598288004206033 ], [ 17.260770209594554, 49.598889404206354 ] ] ] } },
{ "type": "Feature", "properties": { "name": "Biskupské nám.", "legend": "park" }, "geometry": { "type": "Polygon", "coordinates": [ [ [ 17.259771609594043, 49.596143104204636 ], [ 17.259730809594018, 49.595920004204508 ], [ 17.259719009594011, 49.595917504204493 ], [ 17.259719409594034, 49.595910904204423 ], [ 17.259724309594016, 49.595905604204425 ], [ 17.259729309594029, 49.595900304204406 ], [ 17.259735809594044, 49.595895504204471 ], [ 17.259744909594048, 49.595891904204443 ], [ 17.259814409594096, 49.595886704204396 ], [ 17.25993890959418, 49.595910704204364 ], [ 17.260404609594509, 49.595854804204308 ], [ 17.260496309594579, 49.595804004204211 ], [ 17.260607709594652, 49.595793104204212 ], [ 17.260625509594657, 49.595857904204259 ], [ 17.260685609594692, 49.596132104204372 ], [ 17.260647109594657, 49.596135604204441 ], [ 17.260356509594455, 49.596138304204523 ], [ 17.259771609594043, 49.596143104204636 ] ] ] } },
{ "type": "Feature", "properties": { "name": "Koperník", "legend": "park" }, "geometry": { "type": "Polygon", "coordinates": [ [ [ 17.232920809572104, 49.639196204239894 ], [ 17.232602009571892, 49.639088704239889 ], [ 17.232764809572018, 49.638848904239651 ], [ 17.232662409571944, 49.638665204239629 ], [ 17.232795509572064, 49.638538504239499 ], [ 17.233369609572467, 49.638626304239423 ], [ 17.233664609572664, 49.638633404239386 ], [ 17.233709609572685, 49.638725404239516 ], [ 17.233232209572346, 49.63905190423975 ], [ 17.232920809572104, 49.639196204239894 ] ] ] } },
{ "type": "Feature", "properties": { "name": null, "legend": "park" }, "geometry": { "type": "Polygon", "coordinates": [ [ [ 17.180138209538462, 49.586807204213585 ], [ 17.180174709538477, 49.586878204213541 ], [ 17.180193609538499, 49.586936304213594 ], [ 17.180197409538497, 49.58699750421362 ], [ 17.180169709538465, 49.587026904213651 ], [ 17.180099109538414, 49.587040004213719 ], [ 17.180004009538337, 49.587040204213771 ], [ 17.179922809538294, 49.586878404213643 ], [ 17.180138209538462, 49.586807204213585 ] ] ] } },
{ "type": "Feature", "properties": { "name": null, "legend": "park" }, "geometry": { "type": "Polygon", "coordinates": [ [ [ 17.25626640959166, 49.595107904204575 ], [ 17.255958209591419, 49.595208304204704 ], [ 17.255915909591401, 49.595167004204669 ], [ 17.255871709591382, 49.595176204204691 ], [ 17.255840509591355, 49.595068204204622 ], [ 17.255889209591384, 49.595065904204645 ], [ 17.255874609591391, 49.594998104204542 ], [ 17.255815009591338, 49.595006104204572 ], [ 17.255702809591288, 49.594666104204393 ], [ 17.255681409591279, 49.594599704204335 ], [ 17.25588070959142, 49.594657604204301 ], [ 17.255879409591412, 49.59466010420433 ], [ 17.255971109591464, 49.594686604204348 ], [ 17.256058809591533, 49.594786004204366 ], [ 17.256145109591575, 49.594890004204458 ], [ 17.256178709591598, 49.594954704204476 ], [ 17.256211609591627, 49.595051104204522 ], [ 17.25626640959166, 49.595107904204575 ] ] ] } },
{ "type": "Feature", "properties": { "name": "Pod Dómem", "legend": "park" }, "geometry": { "type": "Polygon", "coordinates": [ [ [ 17.261850809595352, 49.598453604205808 ], [ 17.261915109595375, 49.598446404205824 ], [ 17.26199210959545, 49.598432604205705 ], [ 17.261995009595449, 49.598436304205777 ], [ 17.262052909595493, 49.598422204205711 ], [ 17.262116709595528, 49.598487704205787 ], [ 17.262301009595678, 49.598367904205624 ], [ 17.262436709595764, 49.59817690420553 ], [ 17.262747509595997, 49.598089804205337 ], [ 17.263004709596192, 49.598010904205303 ], [ 17.263160909596305, 49.597925504205136 ], [ 17.263374109596469, 49.597768404205063 ], [ 17.263386209596469, 49.597723304205019 ], [ 17.26345530959652, 49.597657304204965 ], [ 17.263839009596786, 49.597682204204894 ], [ 17.263964809596875, 49.597693104204922 ], [ 17.26403690959696, 49.597270504204559 ], [ 17.264067609596985, 49.597269604204548 ], [ 17.264127309597029, 49.597270604204503 ], [ 17.264156609597048, 49.597281404204502 ], [ 17.264072209596961, 49.597655404204779 ], [ 17.264053109596944, 49.597808204204867 ], [ 17.263539709596543, 49.598233204205371 ], [ 17.263245109596333, 49.598451004205543 ], [ 17.263082509596195, 49.598591204205626 ], [ 17.262843109596027, 49.598720504205787 ], [ 17.26251010959578, 49.598806004205876 ], [ 17.262166409595544, 49.598821004205959 ], [ 17.261838009595316, 49.598813004206065 ], [ 17.261477409595059, 49.598811004206148 ], [ 17.261012909594722, 49.598869204206281 ], [ 17.260884109594631, 49.598891604206344 ], [ 17.260821709594591, 49.598871404206314 ], [ 17.261299009594936, 49.598651504206046 ], [ 17.261388209595019, 49.598515504205906 ], [ 17.26163710959521, 49.598439804205761 ], [ 17.26173410959527, 49.598436504205786 ], [ 17.26182310959534, 49.598425104205788 ], [ 17.261821509595311, 49.598419804205825 ], [ 17.261841209595335, 49.598417304205803 ], [ 17.261850809595352, 49.598453604205808 ] ] ] } },
{ "type": "Feature", "properties": { "name": null, "legend": "park" }, "geometry": { "type": "Polygon", "coordinates": [ [ [ 17.250998209587816, 49.597113804207012 ], [ 17.250992609587811, 49.597047004206935 ], [ 17.2509904095878, 49.597028204206929 ], [ 17.250988209587796, 49.597002704206915 ], [ 17.250839309587704, 49.596996304206918 ], [ 17.25081200958769, 49.596964504206866 ], [ 17.250560109587511, 49.596975704207004 ], [ 17.250531309587501, 49.596737804206818 ], [ 17.250469409587453, 49.596736004206846 ], [ 17.250450809587452, 49.596634004206734 ], [ 17.250548009587529, 49.596627104206746 ], [ 17.250729909587655, 49.596621204206699 ], [ 17.250725409587652, 49.596598904206715 ], [ 17.250847509587743, 49.596592604206634 ], [ 17.250871009587769, 49.596563404206613 ], [ 17.250959109587814, 49.596566204206646 ], [ 17.251193409587977, 49.596573604206625 ], [ 17.251308609588055, 49.596549804206575 ], [ 17.25138870958812, 49.596665904206588 ], [ 17.251634409588259, 49.596987604206802 ], [ 17.251545309588195, 49.597012904206835 ], [ 17.251448009588128, 49.597029904206835 ], [ 17.251297509588024, 49.59705130420685 ], [ 17.251302309588016, 49.59706300420693 ], [ 17.251288009588009, 49.597130304206921 ], [ 17.250998209587816, 49.597113804207012 ] ] ] } },
{ "type": "Feature", "properties": { "name": null, "legend": "park" }, "geometry": { "type": "Polygon", "coordinates": [ [ [ 17.23131320957334, 49.605739504216878 ], [ 17.231806509573708, 49.605482904216593 ], [ 17.231893609573753, 49.605504404216568 ], [ 17.231972209573826, 49.605464404216491 ], [ 17.232237409574015, 49.605329104216366 ], [ 17.232197809574, 49.605306604216338 ], [ 17.232795009574442, 49.60497260421608 ], [ 17.233092409574624, 49.605215504216162 ], [ 17.233471809574876, 49.605472404216258 ], [ 17.233334709574766, 49.605602704216366 ], [ 17.232694109574286, 49.606211104216939 ], [ 17.232601209574213, 49.606168104216884 ], [ 17.232472209574116, 49.606289704217019 ], [ 17.231901409573744, 49.60601870421695 ], [ 17.23131320957334, 49.605739504216878 ] ] ] } },
{ "type": "Feature", "properties": { "name": null, "legend": "park" }, "geometry": { "type": "Polygon", "coordinates": [ [ [ 17.257265709591774, 49.603453104210196 ], [ 17.257062109591665, 49.602796404209784 ], [ 17.257688509592128, 49.602431104209451 ], [ 17.258178909592488, 49.602388104209254 ], [ 17.258415209592609, 49.603138104209719 ], [ 17.257458509591899, 49.603617604210264 ], [ 17.257379009591837, 49.603620004210306 ], [ 17.257345709591824, 49.603492604210231 ], [ 17.257313309591801, 49.603495104210225 ], [ 17.257265709591774, 49.603453104210196 ] ] ] } },
{ "type": "Feature", "properties": { "name": null, "legend": "park" }, "geometry": { "type": "Polygon", "coordinates": [ [ [ 17.253815909592667, 49.555161204177018 ], [ 17.253233109592252, 49.555264204177213 ], [ 17.252365809591627, 49.555512704177531 ], [ 17.252089209591411, 49.55572190417778 ], [ 17.251769309591189, 49.555615704177711 ], [ 17.252204009591519, 49.555301504177464 ], [ 17.253140709592223, 49.554612104176663 ], [ 17.253815909592667, 49.555161204177018 ] ] ] } },
{ "type": "Feature", "properties": { "name": "Bezručovy sady", "legend": "park" }, "geometry": { "type": "Polygon", "coordinates": [ [ [ 17.255681409591279, 49.594599704204335 ], [ 17.255670209591273, 49.59459670420437 ], [ 17.255656909591266, 49.594561604204323 ], [ 17.255645109591253, 49.594534504204297 ], [ 17.255623809591242, 49.594487104204291 ], [ 17.25559940959123, 49.594432404204227 ], [ 17.255543709591208, 49.594299204204106 ], [ 17.255506309591176, 49.594207304204055 ], [ 17.255514609591192, 49.594206204204085 ], [ 17.255513209591182, 49.594201604204059 ], [ 17.255500409591178, 49.594166804204086 ], [ 17.255487309591171, 49.594135804204015 ], [ 17.255443309591143, 49.594026604203975 ], [ 17.255490109591179, 49.594019204203981 ], [ 17.255485609591187, 49.594008004203914 ], [ 17.255500809591197, 49.59400570420393 ], [ 17.255501809591191, 49.594000104203978 ], [ 17.255504609591192, 49.593983504203955 ], [ 17.255507909591199, 49.593964804203921 ], [ 17.255492209591189, 49.593963804203916 ], [ 17.255505209591206, 49.593896404203825 ], [ 17.25551040959121, 49.593831704203758 ], [ 17.255516909591208, 49.593832404203823 ], [ 17.255530709591238, 49.593762604203739 ], [ 17.255521109591214, 49.593763404203699 ], [ 17.255520809591211, 49.593765904203785 ], [ 17.25546920959118, 49.593761704203764 ], [ 17.25543610959118, 49.593465904203576 ], [ 17.255427609591184, 49.593408004203546 ], [ 17.255410309591181, 49.593244004203456 ], [ 17.255427109591192, 49.5932429042034 ], [ 17.255424509591197, 49.593224804203352 ], [ 17.255406509591175, 49.593226404203442 ], [ 17.255281909591133, 49.592752404203054 ], [ 17.255301109591137, 49.592725304203043 ], [ 17.255374009591176, 49.59272730420313 ], [ 17.25540490959121, 49.592741204203044 ], [ 17.255421409591218, 49.592723804203054 ], [ 17.2553943095912, 49.592712504203085 ], [ 17.255390509591198, 49.592658604202953 ], [ 17.255408609591228, 49.592647404203007 ], [ 17.255386609591209, 49.592633404202957 ], [ 17.255358409591185, 49.592648304202982 ], [ 17.255327509591169, 49.59265070420296 ], [ 17.255301109591144, 49.592652704203054 ], [ 17.255279309591142, 49.592654304203016 ], [ 17.255274609591115, 49.592654704203063 ], [ 17.255297209591145, 49.592544504202976 ], [ 17.255447309591275, 49.592191504202717 ], [ 17.255485709591312, 49.59219430420265 ], [ 17.25559770959142, 49.591644004202315 ], [ 17.255631409591452, 49.591633404202291 ], [ 17.255645809591442, 49.591621604202302 ], [ 17.255651009591453, 49.591604104202197 ], [ 17.255647409591461, 49.591588104202216 ], [ 17.255627609591446, 49.591570204202249 ], [ 17.255633109591457, 49.591545404202172 ], [ 17.255664309591488, 49.591326404201972 ], [ 17.255669009591504, 49.59129330420204 ], [ 17.2556781095915, 49.591229104201958 ], [ 17.255715109591531, 49.591201004201906 ], [ 17.25569770959153, 49.591085004201851 ], [ 17.255693309591543, 49.59103570420185 ], [ 17.255659709591509, 49.590920504201748 ], [ 17.255621609591497, 49.59092450420173 ], [ 17.25559640959148, 49.590830904201681 ], [ 17.255570009591455, 49.590773104201702 ], [ 17.255507509591432, 49.59068390420159 ], [ 17.255550909591449, 49.59064580420155 ], [ 17.25558970959149, 49.590625904201573 ], [ 17.25568780959156, 49.590576604201516 ], [ 17.255767209591617, 49.590541804201493 ], [ 17.255808009591647, 49.590570004201481 ], [ 17.256193409591919, 49.590349304201254 ], [ 17.256151409591912, 49.590319804201243 ], [ 17.256504809592172, 49.590128404201039 ], [ 17.256523609592186, 49.590126604201025 ], [ 17.2565515095922, 49.590113704200995 ], [ 17.256421909592131, 49.589938004200874 ], [ 17.256217609591996, 49.589639804200736 ], [ 17.256705209592326, 49.589702004200753 ], [ 17.256710509592324, 49.589815904200726 ], [ 17.256735309592337, 49.589898804200828 ], [ 17.256790309592379, 49.590014904200885 ], [ 17.257054709592527, 49.590406104201122 ], [ 17.257129309592571, 49.59053490420122 ], [ 17.25716650959259, 49.59064650420126 ], [ 17.257180709592603, 49.590776504201322 ], [ 17.257178409592598, 49.590839304201367 ], [ 17.257177209592577, 49.590872004201465 ], [ 17.257143509592556, 49.590999604201535 ], [ 17.257124009592548, 49.591056004201519 ], [ 17.256939409592363, 49.591616204202019 ], [ 17.256868409592308, 49.591750804202107 ], [ 17.256410609591939, 49.592465204202668 ], [ 17.256346709591874, 49.592641204202813 ], [ 17.256261509591781, 49.593195604203252 ], [ 17.256214609591733, 49.593334604203307 ], [ 17.256009509591571, 49.593752304203612 ], [ 17.255984809591538, 49.593814404203734 ], [ 17.255982909591541, 49.593819104203703 ], [ 17.255943809591511, 49.593903204203691 ], [ 17.25593800959151, 49.593974504203842 ], [ 17.255916909591487, 49.594007004203839 ], [ 17.255908709591463, 49.5940390042039 ], [ 17.255942109591501, 49.594064004203879 ], [ 17.256022709591541, 49.594079104203907 ], [ 17.256045209591562, 49.594112504203899 ], [ 17.256037609591559, 49.594154504203928 ], [ 17.256059509591566, 49.594177404203954 ], [ 17.256132109591608, 49.594197304203938 ], [ 17.256188109591655, 49.594218104203946 ], [ 17.256272409591709, 49.594258804203974 ], [ 17.256305609591738, 49.594291904203963 ], [ 17.256386109591794, 49.594304504203961 ], [ 17.256519409591881, 49.594306704203959 ], [ 17.256577609591925, 49.594308804203941 ], [ 17.256653709591976, 49.594311604203888 ], [ 17.256785409592077, 49.594302704203841 ], [ 17.256947309592189, 49.594268504203875 ], [ 17.257070309592283, 49.594229504203817 ], [ 17.257320009592462, 49.594119704203628 ], [ 17.257661309592709, 49.594026904203517 ], [ 17.259514609594031, 49.593624304202883 ], [ 17.259685309594165, 49.593604004202824 ], [ 17.259819509594248, 49.593600704202778 ], [ 17.259965109594365, 49.593609704202741 ], [ 17.261268809595254, 49.593795104202698 ], [ 17.261356709595322, 49.593813004202673 ], [ 17.261433209595371, 49.593841504202608 ], [ 17.261616409595501, 49.593932604202649 ], [ 17.261736909595573, 49.594028604202698 ], [ 17.261802109595617, 49.594101004202749 ], [ 17.261842309595625, 49.594175804202791 ], [ 17.261861109595646, 49.594218904202883 ], [ 17.262075709595731, 49.595173804203469 ], [ 17.261999109595674, 49.59527250420355 ], [ 17.261900709595601, 49.595303104203587 ], [ 17.261842109595566, 49.595346904203616 ], [ 17.261575909595365, 49.595374904203695 ], [ 17.261573809595362, 49.595373704203745 ], [ 17.261566409595368, 49.595371804203758 ], [ 17.26155730959535, 49.595370804203725 ], [ 17.261571909595375, 49.595314804203625 ], [ 17.261573009595367, 49.595265304203615 ], [ 17.261573809595383, 49.595090604203484 ], [ 17.261549809595362, 49.595092404203541 ], [ 17.261547409595373, 49.595085104203505 ], [ 17.261532809595359, 49.595037604203469 ], [ 17.261508709595351, 49.594988104203445 ], [ 17.261499809595339, 49.594967904203479 ], [ 17.261480109595322, 49.594929904203376 ], [ 17.261436409595301, 49.594811904203333 ], [ 17.261412309595293, 49.594754004203345 ], [ 17.261358009595263, 49.594709704203289 ], [ 17.261293009595214, 49.594651804203288 ], [ 17.261178209595144, 49.594549104203246 ], [ 17.261161609595138, 49.594529204203205 ], [ 17.260909209594953, 49.594444204203143 ], [ 17.260833909594922, 49.594409904203211 ], [ 17.260684509594814, 49.594380604203188 ], [ 17.260690709594819, 49.594375904203133 ], [ 17.260692009594816, 49.594366904203149 ], [ 17.260691509594803, 49.594363304203263 ], [ 17.260690509594802, 49.594359304203167 ], [ 17.260686909594813, 49.594353304203196 ], [ 17.260683809594816, 49.594349104203168 ], [ 17.260681509594807, 49.594345804203165 ], [ 17.260676409594797, 49.59434140420317 ], [ 17.2606696095948, 49.594336904203196 ], [ 17.2606642095948, 49.594334204203129 ], [ 17.260656509594789, 49.594331604203155 ], [ 17.260650009594787, 49.594329604203153 ], [ 17.260642509594781, 49.594327704203202 ], [ 17.260633709594774, 49.594326604203168 ], [ 17.26062600959478, 49.594326304203101 ], [ 17.260618809594767, 49.594326604203161 ], [ 17.260612209594761, 49.594327604203166 ], [ 17.260605409594763, 49.594329104203119 ], [ 17.260596009594732, 49.59433110420327 ], [ 17.260588009594741, 49.594334604203176 ], [ 17.26058240959474, 49.594337404203195 ], [ 17.260513309594689, 49.594300404203167 ], [ 17.260352209594583, 49.594248304203205 ], [ 17.260321009594563, 49.594247504203132 ], [ 17.260308809594555, 49.594249804203166 ], [ 17.260286009594527, 49.594239504203188 ], [ 17.260285209594535, 49.59423310420317 ], [ 17.260202009594479, 49.594196704203142 ], [ 17.260198709594487, 49.594199704203128 ], [ 17.260094209594413, 49.594152004203131 ], [ 17.260086809594409, 49.594152704203132 ], [ 17.260088309594405, 49.594160504203124 ], [ 17.260092509594411, 49.594159904203096 ], [ 17.260093809594402, 49.594165304203152 ], [ 17.260086009594406, 49.59416600420316 ], [ 17.260081109594406, 49.594142304203203 ], [ 17.260074609594405, 49.594142504203141 ], [ 17.260074209594393, 49.59414070420312 ], [ 17.259771409594197, 49.594127604203202 ], [ 17.259393109593912, 49.594145104203335 ], [ 17.259391209593915, 49.594146804203277 ], [ 17.259407609593918, 49.59423600420331 ], [ 17.25943350959394, 49.594382704203383 ], [ 17.259454009593941, 49.594434704203501 ], [ 17.259234909593783, 49.594483504203531 ], [ 17.259218909593773, 49.594480804203535 ], [ 17.259210209593775, 49.594480704203491 ], [ 17.25920130959376, 49.594482704203493 ], [ 17.259189109593748, 49.594487904203596 ], [ 17.259178809593742, 49.594492404203557 ], [ 17.259173209593737, 49.594496704203586 ], [ 17.259169809593736, 49.594500304203542 ], [ 17.259168109593734, 49.594503704203582 ], [ 17.259167209593738, 49.594507104203522 ], [ 17.259083109593664, 49.594565004203652 ], [ 17.259077609593671, 49.594566904203575 ], [ 17.259067709593651, 49.594567704203662 ], [ 17.259050409593655, 49.594568804203675 ], [ 17.25902150959363, 49.594589904203666 ], [ 17.258992009593591, 49.594608904203675 ], [ 17.258888309593537, 49.594674004203704 ], [ 17.258888109593528, 49.59467750420373 ], [ 17.258887209593521, 49.594680504203801 ], [ 17.258885109593521, 49.594684104203758 ], [ 17.258883209593527, 49.594686804203789 ], [ 17.258879809593513, 49.594689304203754 ], [ 17.258875509593516, 49.594691804203777 ], [ 17.258867509593511, 49.594694604203752 ], [ 17.258778909593449, 49.594725304203756 ], [ 17.258713109593398, 49.594740704203822 ], [ 17.258641309593344, 49.594757404203861 ], [ 17.258562109593282, 49.594775904203892 ], [ 17.258436109593198, 49.59473470420383 ], [ 17.258429609593207, 49.594739804203861 ], [ 17.258412309593179, 49.59473080420392 ], [ 17.258406509593179, 49.594728304203819 ], [ 17.258401309593179, 49.594726804203901 ], [ 17.258395209593186, 49.594725504203893 ], [ 17.258387709593169, 49.594724804203857 ], [ 17.258379409593164, 49.594724804203871 ], [ 17.258372809593151, 49.594725604203909 ], [ 17.258364909593148, 49.594727404203923 ], [ 17.258359409593137, 49.594729104203907 ], [ 17.258353709593145, 49.594731904203854 ], [ 17.258348309593142, 49.594735104203814 ], [ 17.25834410959315, 49.594738804203885 ], [ 17.258340909593148, 49.594742404203835 ], [ 17.258338009593139, 49.594748004203907 ], [ 17.258336709593124, 49.594753104203981 ], [ 17.258336509593143, 49.594757704203928 ], [ 17.258337809593133, 49.59476230420389 ], [ 17.258340609593127, 49.594768304203939 ], [ 17.258346009593136, 49.594777204203936 ], [ 17.258224509593052, 49.594836904203952 ], [ 17.258159109593006, 49.594867804204043 ], [ 17.258139309592973, 49.594881104204042 ], [ 17.258001909592874, 49.594932204204113 ], [ 17.257888109592798, 49.594974604204154 ], [ 17.257884709592798, 49.594970704204144 ], [ 17.257846909592775, 49.594984104204158 ], [ 17.257849709592772, 49.594987304204139 ], [ 17.257845409592779, 49.594988804204206 ], [ 17.257836409592763, 49.594990404204182 ], [ 17.257755909592703, 49.595021404204168 ], [ 17.257735609592697, 49.594986504204172 ], [ 17.257550709592557, 49.59502820420429 ], [ 17.257549009592562, 49.595024804204179 ], [ 17.257541509592553, 49.595026604204257 ], [ 17.257543309592553, 49.595029704204237 ], [ 17.257472609592504, 49.59504460420429 ], [ 17.257312009592393, 49.595078204204306 ], [ 17.257309309592387, 49.59507240420438 ], [ 17.257302109592391, 49.595073404204314 ], [ 17.257301609592385, 49.595070604204317 ], [ 17.257301209592391, 49.595068204204267 ], [ 17.257299909592366, 49.595064404204351 ], [ 17.257297809592366, 49.595061004204418 ], [ 17.257294309592371, 49.59505690420432 ], [ 17.257290409592358, 49.595053604204352 ], [ 17.257285509592371, 49.595050104204326 ], [ 17.257280709592369, 49.595047704204362 ], [ 17.257276409592365, 49.595046004204328 ], [ 17.25727110959237, 49.595044504204303 ], [ 17.257265109592346, 49.595043104204336 ], [ 17.257257709592359, 49.59504210420431 ], [ 17.257250009592351, 49.595042104204339 ], [ 17.257242909592343, 49.595042904204313 ], [ 17.257234009592334, 49.595044604204297 ], [ 17.257226409592331, 49.595047104204312 ], [ 17.257221709592326, 49.595049504204312 ], [ 17.257217409592318, 49.595052004204355 ], [ 17.257213109592332, 49.595055804204328 ], [ 17.257209509592322, 49.595059404204278 ], [ 17.257205809592321, 49.595066304204309 ], [ 17.257204509592317, 49.595071104204344 ], [ 17.257204709592301, 49.595078404204365 ], [ 17.257205609592312, 49.595085804204373 ], [ 17.257075509592216, 49.595100904204429 ], [ 17.256810709592028, 49.595128204204471 ], [ 17.25670160959195, 49.595149104204559 ], [ 17.256574209591864, 49.595172504204506 ], [ 17.256421809591753, 49.595163804204631 ], [ 17.256316509591677, 49.595153104204577 ], [ 17.256310309591672, 49.59515370420462 ], [ 17.25626640959166, 49.595107904204575 ], [ 17.256211609591627, 49.595051104204522 ], [ 17.256178709591598, 49.594954704204476 ], [ 17.256145109591575, 49.594890004204458 ], [ 17.256058809591533, 49.594786004204366 ], [ 17.255971109591464, 49.594686604204348 ], [ 17.255879409591412, 49.59466010420433 ], [ 17.25588070959142, 49.594657604204301 ], [ 17.255681409591279, 49.594599704204335 ] ] ] } },
{ "type": "Feature", "properties": { "name": null, "legend": "park" }, "geometry": { "type": "Polygon", "coordinates": [ [ [ 17.2947449096167, 49.622753104216358 ], [ 17.294934909616856, 49.622457004216123 ], [ 17.294967009616879, 49.622419504216069 ], [ 17.294984809616899, 49.622402304216045 ], [ 17.29501130961691, 49.62239950421602 ], [ 17.29502670961692, 49.622408004216133 ], [ 17.29503450961694, 49.622441804216059 ], [ 17.295058109616935, 49.622459904216093 ], [ 17.29507520961695, 49.622471804216083 ], [ 17.295121809616976, 49.622492204216158 ], [ 17.295144909617008, 49.622501104216113 ], [ 17.295172609617026, 49.622509204216023 ], [ 17.295184809617034, 49.622545504216113 ], [ 17.295197009617034, 49.622547504216186 ], [ 17.295196509617035, 49.622579104216129 ], [ 17.29532290961712, 49.622578804216118 ], [ 17.295327509617135, 49.622527804216062 ], [ 17.295427909617196, 49.622503704216008 ], [ 17.295444009617206, 49.622502404216043 ], [ 17.295636309617333, 49.622709104216135 ], [ 17.295148809616979, 49.622888604216371 ], [ 17.2947449096167, 49.622753104216358 ] ] ] } },
{ "type": "Feature", "properties": { "name": null, "legend": "park" }, "geometry": { "type": "Polygon", "coordinates": [ [ [ 17.2721544096031, 49.590835004198489 ], [ 17.272262509603202, 49.590644304198307 ], [ 17.272271009603216, 49.590599004198239 ], [ 17.273184909603842, 49.590679404198163 ], [ 17.273041709603731, 49.590909604198337 ], [ 17.272964309603669, 49.591034104198414 ], [ 17.272185209603137, 49.590842604198478 ], [ 17.2721544096031, 49.590835004198489 ] ] ] } },
{ "type": "Feature", "properties": { "name": null, "legend": "park" }, "geometry": { "type": "Polygon", "coordinates": [ [ [ 17.338433209646773, 49.628855104212036 ], [ 17.338413809646752, 49.628841304212024 ], [ 17.338425609646769, 49.628834004212031 ], [ 17.338550809646851, 49.628794504211939 ], [ 17.338634709646925, 49.628794504211861 ], [ 17.339019909647178, 49.628891204211939 ], [ 17.338959309647127, 49.628982304211988 ], [ 17.338946409647125, 49.628989004212016 ], [ 17.338923109647098, 49.628988404212009 ], [ 17.338433209646773, 49.628855104212036 ] ] ] } },
{ "type": "Feature", "properties": { "name": null, "legend": "park" }, "geometry": { "type": "Polygon", "coordinates": [ [ [ 17.250517109587317, 49.59929490420862 ], [ 17.250304109587166, 49.599273504208654 ], [ 17.250343109587206, 49.599110304208502 ], [ 17.250556109587354, 49.599131704208489 ], [ 17.250517109587317, 49.59929490420862 ] ] ] } },
{ "type": "Feature", "properties": { "name": null, "legend": "park" }, "geometry": { "type": "Polygon", "coordinates": [ [ [ 17.256097609593084, 49.572790304188935 ], [ 17.256417909593285, 49.572822804188924 ], [ 17.25726260959388, 49.572947104188835 ], [ 17.25684810959352, 49.573942804189656 ], [ 17.256546609593308, 49.573898004189672 ], [ 17.256424209593209, 49.574105704189726 ], [ 17.255745109592752, 49.573993604189802 ], [ 17.255884809592828, 49.573961004189869 ], [ 17.255927209592873, 49.573854104189707 ], [ 17.256015109592951, 49.573787904189686 ], [ 17.256206709593094, 49.573711504189554 ], [ 17.256439109593256, 49.573533304189404 ], [ 17.256401409593241, 49.573385704189334 ], [ 17.25617370959311, 49.573087404189117 ], [ 17.256065409593045, 49.572911204188998 ], [ 17.256097609593084, 49.572790304188935 ] ] ] } },
{ "type": "Feature", "properties": { "name": null, "legend": "park" }, "geometry": { "type": "Polygon", "coordinates": [ [ [ 17.217712809564595, 49.593415304210872 ], [ 17.217703609564584, 49.593395804210928 ], [ 17.218894309565467, 49.59274100421019 ], [ 17.218934909565505, 49.592773504210236 ], [ 17.219106409565626, 49.592682204210135 ], [ 17.219394609565818, 49.592961804210248 ], [ 17.21945060956585, 49.593058704210321 ], [ 17.217941809564728, 49.593676604210991 ], [ 17.217737009564619, 49.593477804210877 ], [ 17.217727909564594, 49.593458304210955 ], [ 17.217712809564595, 49.593415304210872 ] ] ] } },
{ "type": "Feature", "properties": { "name": null, "legend": "park" }, "geometry": { "type": "Polygon", "coordinates": [ [ [ 17.251917809587557, 49.609821204215692 ], [ 17.251927609587565, 49.609937904215705 ], [ 17.251942009587559, 49.610109504215842 ], [ 17.251826609587418, 49.610893604216457 ], [ 17.250433009586445, 49.610880004216796 ], [ 17.250440009586463, 49.610752004216643 ], [ 17.250588609586593, 49.610390504216383 ], [ 17.250676009586691, 49.609832004215932 ], [ 17.251455009587239, 49.609822004215744 ], [ 17.251518009587286, 49.609822004215793 ], [ 17.251562209587309, 49.609823204215758 ], [ 17.251917809587557, 49.609821204215692 ] ] ] } },
{ "type": "Feature", "properties": { "name": "Veverák", "legend": "park" }, "geometry": { "type": "Polygon", "coordinates": [ [ [ 17.346140609651776, 49.633883804213994 ], [ 17.346673009652125, 49.634015104214001 ], [ 17.346754809652172, 49.634293404214176 ], [ 17.346693409652108, 49.634485504214304 ], [ 17.346407009651902, 49.634604804214469 ], [ 17.346038709651662, 49.634538504214461 ], [ 17.345813609651518, 49.634240304214309 ], [ 17.345864809651573, 49.633975304214182 ], [ 17.346140609651776, 49.633883804213994 ] ] ] } },
{ "type": "Feature", "properties": { "name": null, "legend": "park" }, "geometry": { "type": "Polygon", "coordinates": [ [ [ 17.339251809647269, 49.629952804212607 ], [ 17.339324609647328, 49.629837504212553 ], [ 17.339369709647347, 49.629818604212502 ], [ 17.339820409647672, 49.629717704212361 ], [ 17.339864609647702, 49.629717704212375 ], [ 17.339864609647705, 49.629756604212325 ], [ 17.339531809647447, 49.630119704212682 ], [ 17.339484309647407, 49.630151004212699 ], [ 17.339453509647399, 49.630148904212703 ], [ 17.33930560964728, 49.630104204212707 ], [ 17.339238509647249, 49.630044804212744 ], [ 17.339251809647269, 49.629952804212607 ] ] ] } },
{ "type": "Feature", "properties": { "name": null, "legend": "park" }, "geometry": { "type": "Polygon", "coordinates": [ [ [ 17.339448709647456, 49.62934180421211 ], [ 17.339922609647761, 49.62962800421225 ], [ 17.339423709647399, 49.629759604212438 ], [ 17.339486109647449, 49.629643004212383 ], [ 17.339507509647468, 49.629570304212344 ], [ 17.339495009647464, 49.629495304212249 ], [ 17.33942730964743, 49.62934990421217 ], [ 17.339448709647456, 49.62934180421211 ] ] ] } },
{ "type": "Feature", "properties": { "name": null, "legend": "park" }, "geometry": { "type": "Polygon", "coordinates": [ [ [ 17.237889109580554, 49.568457304189451 ], [ 17.237910809580558, 49.56825550418931 ], [ 17.237898509580582, 49.568118904189177 ], [ 17.238333309580888, 49.568094604189135 ], [ 17.238381409580889, 49.568485604189426 ], [ 17.237889109580554, 49.568457304189451 ] ] ] } },
{ "type": "Feature", "properties": { "name": null, "legend": "park" }, "geometry": { "type": "Polygon", "coordinates": [ [ [ 17.339260409647334, 49.629137104211999 ], [ 17.339283409647351, 49.629132404212058 ], [ 17.339462909647473, 49.629145004212049 ], [ 17.339662609647604, 49.62914400421203 ], [ 17.339904909647782, 49.629142704211901 ], [ 17.339912409647777, 49.629149904211978 ], [ 17.33991170964778, 49.629158304211956 ], [ 17.339751509647645, 49.629451504212199 ], [ 17.339518709647489, 49.629318104212182 ], [ 17.339268309647327, 49.629164004212079 ], [ 17.339260409647334, 49.629137104211999 ] ] ] } },
{ "type": "Feature", "properties": { "name": null, "legend": "park" }, "geometry": { "type": "Polygon", "coordinates": [ [ [ 17.339037409647183, 49.629003104212003 ], [ 17.339152409647266, 49.628812504211901 ], [ 17.339206609647317, 49.628753904211813 ], [ 17.339264809647364, 49.628606804211707 ], [ 17.33928040964738, 49.628608604211713 ], [ 17.339500209647515, 49.628826304211771 ], [ 17.339558309647547, 49.628870504211818 ], [ 17.339557209647555, 49.62887880421178 ], [ 17.339770209647707, 49.628961704211875 ], [ 17.339971009647826, 49.629011704211806 ], [ 17.339980309647835, 49.629020104211861 ], [ 17.33998050964783, 49.629027004211814 ], [ 17.339978409647841, 49.629032104211802 ], [ 17.339951609647802, 49.629082104211882 ], [ 17.339934209647797, 49.629100204211909 ], [ 17.339727909647657, 49.629112204211921 ], [ 17.339687709647617, 49.629113204211933 ], [ 17.33958200964755, 49.629095904212001 ], [ 17.339534509647525, 49.629043004211958 ], [ 17.339456209647462, 49.629006404211907 ], [ 17.339266109647326, 49.629032804211953 ], [ 17.339251609647334, 49.629026304211962 ], [ 17.339166009647283, 49.629024104211943 ], [ 17.339123509647226, 49.629037204212068 ], [ 17.339039109647178, 49.629015104211994 ], [ 17.339037409647183, 49.629003104212003 ] ] ] } },
{ "type": "Feature", "properties": { "name": null, "legend": "park" }, "geometry": { "type": "Polygon", "coordinates": [ [ [ 17.338403009646758, 49.628647404211883 ], [ 17.339119409647257, 49.628754504211869 ], [ 17.339059309647212, 49.628841504211941 ], [ 17.338720109646971, 49.628765204211916 ], [ 17.338361109646733, 49.628722204211947 ], [ 17.338403009646758, 49.628647404211883 ] ] ] } },
{ "type": "Feature", "properties": { "name": null, "legend": "park" }, "geometry": { "type": "Polygon", "coordinates": [ [ [ 17.339940309647798, 49.629198704211944 ], [ 17.339931709647793, 49.629193104211957 ], [ 17.339960509647806, 49.629141904211885 ], [ 17.33999540964783, 49.629129704211898 ], [ 17.340077009647899, 49.629127404211964 ], [ 17.340079609647898, 49.629133704211888 ], [ 17.339940309647798, 49.629198704211944 ] ] ] } },
{ "type": "Feature", "properties": { "name": null, "legend": "park" }, "geometry": { "type": "Polygon", "coordinates": [ [ [ 17.340006909647848, 49.629098804211871 ], [ 17.339992309647844, 49.629089504211848 ], [ 17.340022209647852, 49.629037604211817 ], [ 17.340048809647882, 49.629032804211818 ], [ 17.340172409647966, 49.629062404211822 ], [ 17.340181609647971, 49.62907560421182 ], [ 17.340157809647955, 49.629094604211829 ], [ 17.340006909647848, 49.629098804211871 ] ] ] } },
{ "type": "Feature", "properties": { "name": null, "legend": "park" }, "geometry": { "type": "Polygon", "coordinates": [ [ [ 17.339096109647137, 49.630028004212726 ], [ 17.338854909646987, 49.629934304212647 ], [ 17.338852509646994, 49.629927104212683 ], [ 17.338864409647005, 49.629919004212617 ], [ 17.339008309647092, 49.629899504212645 ], [ 17.33918310964722, 49.629858004212615 ], [ 17.339212309647248, 49.629862604212555 ], [ 17.339225009647254, 49.629887704212578 ], [ 17.339143509647176, 49.630018304212705 ], [ 17.339123809647155, 49.63002860421274 ], [ 17.339096109647137, 49.630028004212726 ] ] ] } },
{ "type": "Feature", "properties": { "name": null, "legend": "park" }, "geometry": { "type": "Polygon", "coordinates": [ [ [ 17.256221809591498, 49.596976704205872 ], [ 17.256232209591495, 49.596956504205821 ], [ 17.256010009591357, 49.596897204205852 ], [ 17.256247909591512, 49.596940004205862 ], [ 17.256253709591505, 49.596941804205905 ], [ 17.256258809591529, 49.596944104205846 ], [ 17.256260709591523, 49.596946904205858 ], [ 17.25626290959152, 49.596949804205828 ], [ 17.256264509591521, 49.596953404205912 ], [ 17.256265709591528, 49.596957204205836 ], [ 17.256266009591524, 49.596961104205853 ], [ 17.25626470959153, 49.596965304205874 ], [ 17.256262509591512, 49.596968104205892 ], [ 17.256258609591509, 49.596972004205853 ], [ 17.256252909591513, 49.59697580420589 ], [ 17.256141209591426, 49.597023504205886 ], [ 17.256045609591354, 49.59705720420596 ], [ 17.255954609591292, 49.597076404206014 ], [ 17.255790309591177, 49.597105704206079 ], [ 17.255661409591088, 49.597119504206105 ], [ 17.255030209590636, 49.597164004206263 ], [ 17.25499050959062, 49.5971306042062 ], [ 17.254976809590609, 49.597070404206143 ], [ 17.255057609590679, 49.596890804206012 ], [ 17.25531260959086, 49.59690640420601 ], [ 17.25558700959105, 49.596917304205903 ], [ 17.255728709591146, 49.596930604205944 ], [ 17.255943909591288, 49.596955504205908 ], [ 17.256052009591379, 49.596966504205866 ], [ 17.256221809591498, 49.596976704205872 ] ] ] } },
{ "type": "Feature", "properties": { "name": "Park Horní lán", "legend": "park" }, "geometry": { "type": "Polygon", "coordinates": [ [ [ 17.230711109574926, 49.576683804196605 ], [ 17.230913209575071, 49.576542304196543 ], [ 17.23096000957511, 49.576575804196494 ], [ 17.231019609575135, 49.576605104196545 ], [ 17.231230109575293, 49.576638704196462 ], [ 17.231384709575419, 49.576663604196455 ], [ 17.23156180957551, 49.576890404196661 ], [ 17.231522609575482, 49.576903104196624 ], [ 17.231357209575386, 49.576685804196487 ], [ 17.230955109575078, 49.576835404196693 ], [ 17.230711109574926, 49.576683804196605 ] ] ] } },
{ "type": "Feature", "properties": { "name": null, "legend": "park" }, "geometry": { "type": "Polygon", "coordinates": [ [ [ 17.256288709591523, 49.597182404206016 ], [ 17.256325709591561, 49.597188504205974 ], [ 17.256292109591524, 49.597273004206038 ], [ 17.256275009591501, 49.597266004206105 ], [ 17.256288709591523, 49.597182404206016 ] ] ] } },
{ "type": "Feature", "properties": { "name": null, "legend": "park" }, "geometry": { "type": "Polygon", "coordinates": [ [ [ 17.256335109591575, 49.59707300420591 ], [ 17.256353509591591, 49.597027704205871 ], [ 17.256367509591591, 49.597009804205904 ], [ 17.256400209591618, 49.596994504205874 ], [ 17.256433109591644, 49.596984904205847 ], [ 17.256473409591671, 49.596984904205826 ], [ 17.256514109591702, 49.596989104205804 ], [ 17.256552009591719, 49.596996704205843 ], [ 17.25700670959203, 49.597073904205736 ], [ 17.256980909592016, 49.597084404205766 ], [ 17.256562809591731, 49.597017804205827 ], [ 17.256499909591692, 49.59704570420589 ], [ 17.256441409591648, 49.597064404205923 ], [ 17.256335109591575, 49.59707300420591 ] ] ] } },
{ "type": "Feature", "properties": { "name": null, "legend": "park" }, "geometry": { "type": "Polygon", "coordinates": [ [ [ 17.256288709591523, 49.597182404206016 ], [ 17.256320509591546, 49.597100704205943 ], [ 17.256538409591705, 49.597082704205938 ], [ 17.256527909591696, 49.597112504205889 ], [ 17.256518909591691, 49.597138104205939 ], [ 17.256508509591676, 49.597167604205971 ], [ 17.256504209591679, 49.597179704205978 ], [ 17.256494809591668, 49.597206404205956 ], [ 17.256483009591655, 49.597239804206019 ], [ 17.256476609591655, 49.597213004205969 ], [ 17.256403309591594, 49.597201104206 ], [ 17.25636050959158, 49.597194204206019 ], [ 17.256328009591549, 49.597189004205994 ], [ 17.256288709591523, 49.597182404206016 ] ] ] } },
{ "type": "Feature", "properties": { "name": null, "legend": "park" }, "geometry": { "type": "Polygon", "coordinates": [ [ [ 17.251412409588145, 49.59649790420643 ], [ 17.251508709588215, 49.596470804206426 ], [ 17.251579109588246, 49.596575604206471 ], [ 17.251495709588191, 49.596620404206583 ], [ 17.251412409588145, 49.59649790420643 ] ] ] } },
{ "type": "Feature", "properties": { "name": null, "legend": "park" }, "geometry": { "type": "Polygon", "coordinates": [ [ [ 17.260192009595293, 49.582500804194893 ], [ 17.260417309595439, 49.582509504194917 ], [ 17.260712409595655, 49.582535604194874 ], [ 17.259811309594951, 49.583267104195535 ], [ 17.259426309594676, 49.583595304195875 ], [ 17.259311509594582, 49.583739804195964 ], [ 17.258969509594344, 49.583690604196015 ], [ 17.25897850959435, 49.583664104196004 ], [ 17.259011909594374, 49.583563304195913 ], [ 17.258837509594258, 49.583537304195886 ], [ 17.258944809594361, 49.583205104195763 ], [ 17.258995809594392, 49.583206004195631 ], [ 17.259032009594421, 49.583155504195673 ], [ 17.260129009595236, 49.582526004195053 ], [ 17.260192009595293, 49.582500804194893 ] ] ] } },
{ "type": "Feature", "properties": { "name": null, "legend": "park" }, "geometry": { "type": "Polygon", "coordinates": [ [ [ 17.337953309646306, 49.63058270421331 ], [ 17.338033809646369, 49.630616204213325 ], [ 17.338344309646587, 49.630726204213367 ], [ 17.338300609646545, 49.630794604213392 ], [ 17.338343609646579, 49.630845904213437 ], [ 17.338546109646693, 49.630928404213456 ], [ 17.338462909646626, 49.631032604213509 ], [ 17.338458909646626, 49.631109904213609 ], [ 17.338559509646682, 49.631266304213703 ], [ 17.33821620964645, 49.631272404213767 ], [ 17.33794120964626, 49.631141204213741 ], [ 17.337809809646192, 49.630838904213569 ], [ 17.33782190964622, 49.63075810421347 ], [ 17.337953309646306, 49.63058270421331 ] ] ] } },
{ "type": "Feature", "properties": { "name": null, "legend": "park" }, "geometry": { "type": "Polygon", "coordinates": [ [ [ 17.261412309595293, 49.594754004203345 ], [ 17.261328709595229, 49.594769504203335 ], [ 17.261302409595213, 49.59477530420331 ], [ 17.261286309595203, 49.594740804203276 ], [ 17.261291609595208, 49.594738004203336 ], [ 17.260974209595002, 49.594605304203256 ], [ 17.260977809594991, 49.594600904203354 ], [ 17.260943709594976, 49.594591004203323 ], [ 17.260940309594972, 49.59459730420329 ], [ 17.260908009594957, 49.59459250420327 ], [ 17.260911009594963, 49.594585104203283 ], [ 17.260879609594934, 49.594581304203366 ], [ 17.260875209594925, 49.594589204203302 ], [ 17.260806109594881, 49.594575804203295 ], [ 17.26081230959489, 49.594557604203288 ], [ 17.260810009594884, 49.59455730420332 ], [ 17.260804209594863, 49.594555404203348 ], [ 17.260759809594848, 49.594541204203288 ], [ 17.260746409594841, 49.594543004203302 ], [ 17.26073990959484, 49.594554104203276 ], [ 17.26073060959483, 49.594552004203294 ], [ 17.260725809594831, 49.594561004203285 ], [ 17.260700109594804, 49.594555104203309 ], [ 17.260704309594814, 49.594546504203279 ], [ 17.260684309594801, 49.594541904203311 ], [ 17.260679609594789, 49.594550404203304 ], [ 17.260653409594774, 49.594544304203261 ], [ 17.260658209594773, 49.594535604203365 ], [ 17.260639109594766, 49.5945312042033 ], [ 17.260634309594774, 49.594539904203302 ], [ 17.260610809594745, 49.594534504203288 ], [ 17.260615409594749, 49.594526104203304 ], [ 17.260577309594723, 49.594517304203322 ], [ 17.260572709594729, 49.594525804203236 ], [ 17.260560109594714, 49.594522904203302 ], [ 17.260559709594716, 49.594523504203259 ], [ 17.260554609594696, 49.594522104203371 ], [ 17.260554109594711, 49.594522904203309 ], [ 17.260532509594693, 49.594517904203279 ], [ 17.260533409594686, 49.594516304203317 ], [ 17.260527209594684, 49.594515004203323 ], [ 17.260527909594686, 49.594513904203318 ], [ 17.260517009594682, 49.594511004203312 ], [ 17.260520809594681, 49.594504204203361 ], [ 17.260498809594669, 49.594499204203359 ], [ 17.26049280959467, 49.59450610420329 ], [ 17.260335009594556, 49.594448404203291 ], [ 17.26034570959456, 49.594438104203306 ], [ 17.260332009594553, 49.594429504203298 ], [ 17.260277409594526, 49.594404304203287 ], [ 17.260279109594528, 49.594311904203231 ], [ 17.260300709594535, 49.594294504203177 ], [ 17.26032500959457, 49.594275704203149 ], [ 17.260352209594583, 49.594248304203205 ], [ 17.260513309594689, 49.594300404203167 ], [ 17.26058240959474, 49.594337404203195 ], [ 17.260588009594741, 49.594334604203176 ], [ 17.260596009594732, 49.59433110420327 ], [ 17.260605409594763, 49.594329104203119 ], [ 17.260612209594761, 49.594327604203166 ], [ 17.260618809594767, 49.594326604203161 ], [ 17.26062600959478, 49.594326304203101 ], [ 17.260633709594774, 49.594326604203168 ], [ 17.260642509594781, 49.594327704203202 ], [ 17.260650009594787, 49.594329604203153 ], [ 17.260656509594789, 49.594331604203155 ], [ 17.2606642095948, 49.594334204203129 ], [ 17.2606696095948, 49.594336904203196 ], [ 17.260676409594797, 49.59434140420317 ], [ 17.260681509594807, 49.594345804203165 ], [ 17.260683809594816, 49.594349104203168 ], [ 17.260686909594813, 49.594353304203196 ], [ 17.260690509594802, 49.594359304203167 ], [ 17.260691509594803, 49.594363304203263 ], [ 17.260692009594816, 49.594366904203149 ], [ 17.260690709594819, 49.594375904203133 ], [ 17.260684509594814, 49.594380604203188 ], [ 17.260833909594922, 49.594409904203211 ], [ 17.260909209594953, 49.594444204203143 ], [ 17.261161609595138, 49.594529204203205 ], [ 17.261178209595144, 49.594549104203246 ], [ 17.261293009595214, 49.594651804203288 ], [ 17.261358009595263, 49.594709704203289 ], [ 17.261412309595293, 49.594754004203345 ] ] ] } },
{ "type": "Feature", "properties": { "name": null, "legend": "park" }, "geometry": { "type": "Polygon", "coordinates": [ [ [ 17.260198709594487, 49.594199704203128 ], [ 17.260173609594467, 49.594208304203192 ], [ 17.260289209594536, 49.594259804203183 ], [ 17.260266709594521, 49.594278704203184 ], [ 17.260240509594496, 49.594300504203254 ], [ 17.260235209594491, 49.594467104203297 ], [ 17.260136909594408, 49.594469504203389 ], [ 17.260123909594423, 49.594216804203214 ], [ 17.259940909594295, 49.594219904203257 ], [ 17.259928909594294, 49.594209404203184 ], [ 17.25966600959411, 49.594217004203308 ], [ 17.259653909594093, 49.594227004203283 ], [ 17.259473509593974, 49.59423160420338 ], [ 17.259490109593958, 49.594472804203527 ], [ 17.259462609593946, 49.594473204203531 ], [ 17.25946840959395, 49.594502304203544 ], [ 17.259492909593966, 49.594502204203494 ], [ 17.259525209593981, 49.59458080420351 ], [ 17.259507109593972, 49.594583504203534 ], [ 17.259509209593972, 49.594592504203561 ], [ 17.259128409593693, 49.594650704203694 ], [ 17.25894160959356, 49.594684604203728 ], [ 17.258883209593527, 49.594686804203789 ], [ 17.258885109593521, 49.594684104203758 ], [ 17.258887209593521, 49.594680504203801 ], [ 17.258888109593528, 49.59467750420373 ], [ 17.258888309593537, 49.594674004203704 ], [ 17.258992009593591, 49.594608904203675 ], [ 17.25902150959363, 49.594589904203666 ], [ 17.259050409593655, 49.594568804203675 ], [ 17.259067709593651, 49.594567704203662 ], [ 17.259077609593671, 49.594566904203575 ], [ 17.259083109593664, 49.594565004203652 ], [ 17.259167209593738, 49.594507104203522 ], [ 17.259168109593734, 49.594503704203582 ], [ 17.259169809593736, 49.594500304203542 ], [ 17.259173209593737, 49.594496704203586 ], [ 17.259178809593742, 49.594492404203557 ], [ 17.259189109593748, 49.594487904203596 ], [ 17.25920130959376, 49.594482704203493 ], [ 17.259210209593775, 49.594480704203491 ], [ 17.259218909593773, 49.594480804203535 ], [ 17.259234909593783, 49.594483504203531 ], [ 17.259454009593941, 49.594434704203501 ], [ 17.25943350959394, 49.594382704203383 ], [ 17.259407609593918, 49.59423600420331 ], [ 17.259391209593915, 49.594146804203277 ], [ 17.259393109593912, 49.594145104203335 ], [ 17.259771409594197, 49.594127604203202 ], [ 17.260074209594393, 49.59414070420312 ], [ 17.260074609594405, 49.594142504203141 ], [ 17.260081109594406, 49.594142304203203 ], [ 17.260086009594406, 49.59416600420316 ], [ 17.260093809594402, 49.594165304203152 ], [ 17.260092509594411, 49.594159904203096 ], [ 17.260088309594405, 49.594160504203124 ], [ 17.260086809594409, 49.594152704203132 ], [ 17.260094209594413, 49.594152004203131 ], [ 17.260198709594487, 49.594199704203128 ] ] ] } },
{ "type": "Feature", "properties": { "name": null, "legend": "park" }, "geometry": { "type": "Polygon", "coordinates": [ [ [ 17.295641509621269, 49.566381104176777 ], [ 17.295398109621068, 49.566602904176932 ], [ 17.295164009620926, 49.566493804176879 ], [ 17.295404309621116, 49.566273204176632 ], [ 17.295641509621269, 49.566381104176777 ] ] ] } },
{ "type": "Feature", "properties": { "name": null, "legend": "park" }, "geometry": { "type": "Polygon", "coordinates": [ [ [ 17.294886809620685, 49.567245904177462 ], [ 17.294918209620711, 49.567202404177493 ], [ 17.296541709621785, 49.567936004177632 ], [ 17.296476909621738, 49.567954604177665 ], [ 17.294886809620685, 49.567245904177462 ] ] ] } },
{ "type": "Feature", "properties": { "name": "Park u Hřbitova", "legend": "park" }, "geometry": { "type": "Polygon", "coordinates": [ [ [ 17.222024309568422, 49.582204904202165 ], [ 17.222952309569045, 49.582488104202184 ], [ 17.222477109568683, 49.583007904202631 ], [ 17.222429209568649, 49.583008604202654 ], [ 17.222338209568559, 49.58311210420279 ], [ 17.22231310956855, 49.583150404202826 ], [ 17.221594009568058, 49.582958104202817 ], [ 17.221567309568048, 49.582945804202822 ], [ 17.221563909568047, 49.582936804202781 ], [ 17.221563709568038, 49.582903204202779 ], [ 17.221529109568014, 49.582888704202766 ], [ 17.221828009568252, 49.582484104202408 ], [ 17.222024309568422, 49.582204904202165 ] ] ] } },
{ "type": "Feature", "properties": { "name": null, "legend": "park" }, "geometry": { "type": "Polygon", "coordinates": [ [ [ 17.249207009588645, 49.566751904185999 ], [ 17.250024709589212, 49.566668604185843 ], [ 17.249944409589162, 49.566704604185915 ], [ 17.249393209588749, 49.56687510418616 ], [ 17.249099709588545, 49.566962804186169 ], [ 17.248951709588429, 49.567030604186307 ], [ 17.248859909588376, 49.567086904186411 ], [ 17.248653209588209, 49.567270604186525 ], [ 17.248298509587929, 49.567631404186862 ], [ 17.248045409587746, 49.567840304187023 ], [ 17.247947009587673, 49.567918404187104 ], [ 17.247907509587638, 49.567941704187149 ], [ 17.247851009587599, 49.567966804187158 ], [ 17.247784509587543, 49.567978904187264 ], [ 17.247602109587415, 49.568011304187245 ], [ 17.247580909587406, 49.567993804187282 ], [ 17.247140909587177, 49.566927304186606 ], [ 17.247177809587193, 49.566854204186555 ], [ 17.249207009588645, 49.566751904185999 ] ] ] } },
{ "type": "Feature", "properties": { "name": "Sejdeme se u vody", "legend": "park" }, "geometry": { "type": "Polygon", "coordinates": [ [ [ 17.235181009575754, 49.610141104219224 ], [ 17.23499040957563, 49.609975904219091 ], [ 17.235003609575639, 49.609967404219134 ], [ 17.234918409575592, 49.609912504219061 ], [ 17.234935309575604, 49.609896404219064 ], [ 17.234943909575605, 49.609885204218976 ], [ 17.234932609575598, 49.609876404219065 ], [ 17.235024009575667, 49.609822804219021 ], [ 17.235619309576105, 49.609493004218663 ], [ 17.235825209576266, 49.609377604218544 ], [ 17.236101109576474, 49.609210604218362 ], [ 17.236122609576487, 49.609204304218302 ], [ 17.236139609576494, 49.609203404218391 ], [ 17.236150709576492, 49.609206004218379 ], [ 17.236201309576533, 49.609240504218349 ], [ 17.236215109576545, 49.609250504218416 ], [ 17.236219809576554, 49.609257304218332 ], [ 17.236220209576555, 49.609265004218372 ], [ 17.23621770957655, 49.609271104218386 ], [ 17.236212809576546, 49.609277204218415 ], [ 17.236190509576524, 49.609290804218347 ], [ 17.236053309576416, 49.60937180421849 ], [ 17.235936309576338, 49.609450404218613 ], [ 17.235821209576262, 49.609536904218629 ], [ 17.23570210957616, 49.609626104218719 ], [ 17.235678109576142, 49.609645704218757 ], [ 17.235657209576132, 49.609662904218759 ], [ 17.235243509575795, 49.610059504219137 ], [ 17.235181009575754, 49.610141104219224 ] ] ] } },
{ "type": "Feature", "properties": { "name": "Park Holice", "legend": "park" }, "geometry": { "type": "Polygon", "coordinates": [ [ [ 17.280097909609804, 49.574775704185633 ], [ 17.280078809609776, 49.574687604185598 ], [ 17.280075709609832, 49.574055904185194 ], [ 17.281650809610937, 49.574075804184865 ], [ 17.282226909611335, 49.574083204184745 ], [ 17.282280509611358, 49.574095704184757 ], [ 17.282412609611438, 49.57449780418505 ], [ 17.282427909611435, 49.574677704185135 ], [ 17.282464309611466, 49.574759604185232 ], [ 17.282466209611457, 49.574791904185169 ], [ 17.281507309610781, 49.574801804185427 ], [ 17.280165209609837, 49.574817704185676 ], [ 17.280097909609804, 49.574775704185633 ] ] ] } },
{ "type": "Feature", "properties": { "name": null, "legend": "park" }, "geometry": { "type": "Polygon", "coordinates": [ [ [ 17.345090209651211, 49.631538904212597 ], [ 17.344703909650924, 49.631760304212825 ], [ 17.344021209650467, 49.631548404212801 ], [ 17.343936109650418, 49.631332304212684 ], [ 17.343771609650329, 49.631039904212493 ], [ 17.343969609650468, 49.63111760421247 ], [ 17.345027509651164, 49.631532704212553 ], [ 17.345090209651211, 49.631538904212597 ] ] ] } },
{ "type": "Feature", "properties": { "name": null, "legend": "park" }, "geometry": { "type": "Polygon", "coordinates": [ [ [ 17.256881809592283, 49.59220110420241 ], [ 17.256891809592286, 49.59219410420242 ], [ 17.256906509592305, 49.592191104202428 ], [ 17.256926509592319, 49.592191104202371 ], [ 17.256948809592338, 49.59219610420238 ], [ 17.256958109592333, 49.592205604202398 ], [ 17.256960409592349, 49.592217104202376 ], [ 17.256952709592333, 49.592227604202428 ], [ 17.256938109592319, 49.592234004202446 ], [ 17.256917309592311, 49.592237004202431 ], [ 17.256898009592295, 49.592235004202429 ], [ 17.256881109592282, 49.592226604202452 ], [ 17.25687720959229, 49.592213104202436 ], [ 17.256881809592283, 49.59220110420241 ] ] ] } },
{ "type": "Feature", "properties": { "name": "Okrasná zahrada", "legend": "park" }, "geometry": { "type": "Polygon", "coordinates": [ [ [ 17.267564709598947, 49.604242204208781 ], [ 17.267565109598955, 49.60425270420874 ], [ 17.26757440959895, 49.604484704208879 ], [ 17.267575709598951, 49.604517604208972 ], [ 17.267576709598949, 49.604544004208925 ], [ 17.267578909598935, 49.604599204209038 ], [ 17.266973909598509, 49.604611904209079 ], [ 17.266902909598468, 49.604600604209111 ], [ 17.266609609598252, 49.604608104209198 ], [ 17.266536009598198, 49.604624604209221 ], [ 17.266361309598082, 49.604628504209273 ], [ 17.266372209598078, 49.604763304209357 ], [ 17.266333609598039, 49.604764204209303 ], [ 17.266333409598062, 49.604761104209331 ], [ 17.265219109597265, 49.604782704209597 ], [ 17.265208709597271, 49.604594104209475 ], [ 17.265207109597284, 49.604565704209378 ], [ 17.265205609597274, 49.604539104209429 ], [ 17.265191709597271, 49.604288604209245 ], [ 17.265190709597292, 49.604270904209201 ], [ 17.265188709597293, 49.604234204209185 ], [ 17.265170109597292, 49.603898404208998 ], [ 17.266310009598115, 49.603679304208569 ], [ 17.266394209598186, 49.603678704208562 ], [ 17.267234709598764, 49.603800404208421 ], [ 17.267230009598716, 49.604192204208772 ], [ 17.267229809598721, 49.604211404208804 ], [ 17.267229609598715, 49.604232004208846 ], [ 17.267229509598724, 49.604237304208795 ], [ 17.267564709598947, 49.604242204208781 ] ] ] } },
{ "type": "Feature", "properties": { "name": null, "legend": "park" }, "geometry": { "type": "Polygon", "coordinates": [ [ [ 17.292751109615853, 49.615182504211433 ], [ 17.292806509615897, 49.615120704211378 ], [ 17.29298060961602, 49.614988904211287 ], [ 17.293239409616206, 49.614839204211151 ], [ 17.293375009616327, 49.614680504210938 ], [ 17.293980409616719, 49.614935004211034 ], [ 17.294116009616808, 49.61503680421108 ], [ 17.294238809616896, 49.615090204211107 ], [ 17.294300809616939, 49.615108104211018 ], [ 17.294572009617124, 49.615158604211075 ], [ 17.295112709617495, 49.61535120421113 ], [ 17.294551909617063, 49.615781404211567 ], [ 17.293391909616268, 49.615468004211557 ], [ 17.293319509616225, 49.615471004211599 ], [ 17.292751109615853, 49.615182504211433 ] ] ] } }
]
}
